X,Y,Name,description,altitudeMode,sta,Field1,lon,staname,elev,lat,net,FID,Field_1
-156.6175,71.3221,"b'Barrow, AK, USA'",,clampToGround,b'A21K',1,-156.6175,"b'Barrow, AK, USA'",0.005,71.3221,"b'AK, mag'",1,"b'Barrow, AK, USA'"
-154.9742,71.0033,"b'Sinclair Lake, AK, USA'",,clampToGround,b'A22K',2,-154.9742,"b'Sinclair Lake, AK, USA'",0.006,71.0033,"b'AK, mag'",2,"b'Sinclair Lake, AK, USA'"
74.494,42.639,"b'Ala Archa, Kyrgyzstan'",,clampToGround,b'AAK',3,74.494,"b'Ala Archa, Kyrgyzstan'",1.645,42.639,b'II',3,"b'Ala Archa, Kyrgyzstan'"
58.1189,37.9304,"b'Alibek, Turkmenistan'",,clampToGround,b'ABKT',4,58.1189,"b'Alibek, Turkmenistan'",0.678,37.9304,b'II',4,"b'Alibek, Turkmenistan'"
-176.6842,51.8823,"b'Adak, Aleutian Islands, Alaska'",,clampToGround,b'ADK',7,-176.6842,"b'Adak, Aleutian Islands, Alaska'",0.13,51.8823,"b'mag, IU'",5,"b'Adak, Aleutian Islands, Alaska'"
-171.7773,-13.9093,"b'Afiamalu, Samoa'",,clampToGround,b'AFI',8,-171.7773,"b'Afiamalu, Samoa'",0.706,-13.9093,b'IU',6,"b'Afiamalu, Samoa'"
-166.0708,54.1292,"b'Akutan Reef Bight, Akutan Volcano, Alaska'",,clampToGround,b'AKRB',15,-166.0708,"b'Akutan Reef Bight, Akutan Volcano, Alaska'",0.334,54.1292,"b'Akutan, AV, mag'",7,"b'Akutan Reef Bight, Akutan Volcano, Alaska'"
-165.6987,54.1095,"b'Akutan Strait, Akutan Volcano, Alaska'",,clampToGround,b'AKS',16,-165.6987,"b'Akutan Strait, Akutan Volcano, Alaska'",0.213,54.1095,"b'Akutan, AV, nomag'",8,"b'Akutan Strait, Akutan Volcano, Alaska'"
-62.35,82.5033,"b'Alert, N.W.T., Canada'",,clampToGround,b'ALE',20,-62.35,"b'Alert, N.W.T., Canada'",0.06,82.5033,b'II',9,"b'Alert, N.W.T., Canada'"
179.3018,51.3787,"b'Amchitka Island, Regional Station, Alaska'",,clampToGround,b'AMKA',21,179.3018,"b'Amchitka Island, Regional Station, Alaska'",0.1002,51.3787,"b'AV, mag'",10,"b'Amchitka Island, Regional Station, Alaska'"
-154.8013,58.383,"b'Katmai, Alaska'",,clampToGround,b'KAWH',240,-154.8013,"b'Katmai, Alaska'",0.777,58.383,"b'AV, Katmai, mag'",181,"b'Katmai, Alaska'"
-142.3605,60.9231,"b'Kiagna River, AK, USA'",,clampToGround,b'KIAG',248,-142.3605,"b'Kiagna River, AK, USA'",1.7522,60.9231,"b'AK, Steep, mag'",187,"b'Kiagna River, AK, USA'"
-145.9227,61.4924,"b'Klutina Pass, AK, USA'",,clampToGround,b'KLU',259,-145.9227,"b'Klutina Pass, AK, USA'",1.0471,61.4924,"b'AK, mag'",193,"b'Klutina Pass, AK, USA'"
-150.9233,63.5527,"b'Kantishna Hills, AK, USA'",,clampToGround,b'KTH',272,-150.9233,"b'Kantishna Hills, AK, USA'",1.172,63.5527,"b'AK, mag'",200,"b'Kantishna Hills, AK, USA'"
-158.2972,62.1344,"b'Donlin, AK, USA'",,clampToGround,b'L17K',278,-158.2972,"b'Donlin, AK, USA'",0.338,62.1344,"b'mag, AK'",206,"b'Donlin, AK, USA'"
25.5967,-25.0151,"b'Lobatse, Botswana, Africa'",,clampToGround,b'LBTB',284,25.5967,"b'Lobatse, Botswana, Africa'",1.128,-25.0151,b'GT',212,"b'Lobatse, Botswana, Africa'"
-68.9111,-22.6127,"b'Limon Verde, Chile'",,clampToGround,b'LVC',294,-68.9111,"b'Limon Verde, Chile'",2.96,-22.6127,b'IU',218,"b'Limon Verde, Chile'"
-153.1318,61.8823,"b'Styx River, AK, USA'",,clampToGround,b'M20K',300,-153.1318,"b'Styx River, AK, USA'",1.107,61.8823,"b'mag, AK'",224,"b'Styx River, AK, USA'"
81.977,46.808,"b'Makanchi, Kazakhstan'",,clampToGround,b'MAKZ',306,81.977,"b'Makanchi, Kazakhstan'",0.6,46.808,b'IU',230,"b'Makanchi, Kazakhstan'"
-148.9373,63.7318,"b'McKinley Park, AK, USA'",,clampToGround,b'MCK',313,-148.9373,"b'McKinley Park, AK, USA'",0.618,63.7318,"b'AK, mag'",236,"b'McKinley Park, AK, USA'"
-177.3698,28.2156,"b'Midway Island, USA'",,clampToGround,b'MIDW',322,-177.3698,"b'Midway Island, USA'",0.02,28.2156,b'IU',242,"b'Midway Island, USA'"
178.0528,-17.7448,"b'Monasavu, Fiji'",,clampToGround,b'MSVF',330,178.0528,"b'Monasavu, Fiji'",0.8011,-17.7448,b'II',248,"b'Monasavu, Fiji'"
-123.8237,59.6559,b'Northern British Columbia Site One',,clampToGround,b'NBC1',338,-123.8237,b'Northern British Columbia Site One',0.421,59.6559,b'mag',254,b'Northern British Columbia Site One'
-168.855,52.9721,"b'Nikolski High Hill, AK, USA'",,clampToGround,b'NIKH',345,-168.855,"b'Nikolski High Hill, AK, USA'",0.199,52.9721,"b'AK, mag, CREST'",260,"b'Nikolski High Hill, AK, USA'"
-155.208,59.8542,"b'Koktuh Hills, AK, USA'",,clampToGround,b'O18K',351,-155.208,"b'Koktuh Hills, AK, USA'",0.544,59.8542,"b'mag, AK'",266,"b'Koktuh Hills, AK, USA'"
-168.1382,53.3948,"b'Cone F, Okmok Caldera, Alaska'",,clampToGround,b'OKCF',358,-168.1382,"b'Cone F, Okmok Caldera, Alaska'",0.685,53.3948,"b'Okmok, mag, AV'",272,"b'Cone F, Okmok Caldera, Alaska'"
-153.2319,59.6524,"b'Oil Pt, AK, USA'",,clampToGround,b'P19K',369,-153.2319,"b'Oil Pt, AK, USA'",0.629,59.6524,"b'AV, mag'",278,"b'Oil Pt, AK, USA'"
-109.5581,42.7672,"b'PDAR Array, Pinedale, WY, USA'",,clampToGround,b'PD31',375,-109.5581,"b'PDAR Array, Pinedale, WY, USA'",2.219,42.7672,b'IM',284,"b'PDAR Array, Pinedale, WY, USA'"
-156.821,57.6991,"b'Mt. Peulik Volcano, Alaska'",,clampToGround,b'PLBL',381,-156.821,"b'Mt. Peulik Volcano, Alaska'",0.461,57.6991,"b'Peulik, AV, mag'",290,"b'Mt. Peulik Volcano, Alaska'"
-165.3732,64.5646,"b'Anvil Mountain, AK, USA'",,clampToGround,b'ANM',23,-165.3732,"b'Anvil Mountain, AK, USA'",0.338,64.5646,"b'AK, mag'",12,"b'Anvil Mountain, AK, USA'"
-106.4572,34.9459,"b'Albuquerque, New Mexico, USA'",,clampToGround,b'ANMO',24,-106.4572,"b'Albuquerque, New Mexico, USA'",1.82,34.9459,b'IU',13,"b'Albuquerque, New Mexico, USA'"
32.7934,39.868,"b'Ankara, Turkey'",,clampToGround,b'ANTO',25,32.7934,"b'Ankara, Turkey'",1.09,39.868,b'IU',14,"b'Ankara, Turkey'"
-14.3601,-7.9327,"b'Butt Crater, Ascension Island'",,clampToGround,b'ASCN',26,-14.3601,"b'Butt Crater, Ascension Island'",0.173,-7.9327,b'II',15,"b'Butt Crater, Ascension Island'"
-174.1975,52.2016,"b'Atka Island, AK, USA'",,clampToGround,b'ATKA',27,-174.1975,"b'Atka Island, AK, USA'",0.055,52.2016,"b'AK, mag, CREST'",16,"b'Atka Island, AK, USA'"
-161.8016,69.3641,"b'Kokolik River, AK, USA'",,clampToGround,b'B18K',40,-161.8016,"b'Kokolik River, AK, USA'",0.222,69.3641,"b'AK, mag'",18,"b'Kokolik River, AK, USA'"
-157.1599,70.0079,"b'Meade River, AK, USA'",,clampToGround,b'B20K',41,-157.1599,"b'Meade River, AK, USA'",0.0746,70.0079,"b'AK, mag'",19,"b'Meade River, AK, USA'"
-153.4196,70.34,"b'Teshekpuk Lake, AK, USA'",,clampToGround,b'B22K',42,-153.4196,"b'Teshekpuk Lake, AK, USA'",0.0497,70.34,"b'mag, AK'",20,"b'Teshekpuk Lake, AK, USA'"
-142.4931,60.403,"b'Barkley Ridge, AK, USA'",,clampToGround,b'BARK',46,-142.4931,"b'Barkley Ridge, AK, USA'",1.3896,60.403,"b'mag, AK, Steep'",21,"b'Barkley Ridge, AK, USA'"
-141.6622,61.0595,"b'Barnard Glacier, AK, USA'",,clampToGround,b'BARN',47,-141.6622,"b'Barnard Glacier, AK, USA'",1.689,61.0595,"b'AK, Steep, mag'",22,"b'Barnard Glacier, AK, USA'"
-128.1133,52.1847,"b'Bella Bella, BC, CA'",,clampToGround,b'BBB',49,-128.1133,"b'Bella Bella, BC, CA'",0.014,52.1847,"b'CN, stheast, mag'",24,"b'Bella Bella, BC, CA'"
-64.6963,32.3713,"b'Bermuda Biological Station for Research, St George'",,clampToGround,b'BBSR',50,-64.6963,"b'Bermuda Biological Station for Research, St George'",0.03,32.3713,b'IU',25,"b'Bermuda Biological Station for Research, St George'"
-139.6369,59.9534,"b'Bancas Point, AK, USA'",,clampToGround,b'BCP',51,-139.6369,"b'Bancas Point, AK, USA'",0.4218,59.9534,"b'mag, AK, stheast, ARRA'",26,"b'Bancas Point, AK, USA'"
-143.7004,60.3932,"b'Berg Lake, AK, USA'",,clampToGround,b'BERG',52,-143.7004,"b'Berg Lake, AK, USA'",0.624,60.3932,"b'AK, mag, Steep'",27,"b'Berg Lake, AK, USA'"
-134.8559,58.5792,"b'Bessie Mountain, AK, USA'",,clampToGround,b'BESE',53,-134.8559,"b'Bessie Mountain, AK, USA'",0.867,58.5792,"b'stheast, mag, AK, CREST'",28,"b'Bessie Mountain, AK, USA'"
-143.2841,60.1205,"b'Bering Glacier BLM Camp, AK, USA'",,clampToGround,b'BGLC',55,-143.2841,"b'Bering Glacier BLM Camp, AK, USA'",0.01,60.1205,"b'nomag, AK, Steep'",30,"b'Bering Glacier BLM Camp, AK, USA'"
166.4531,68.0653,"b'Bilibino, Russia'",,clampToGround,b'BILL',56,166.4531,"b'Bilibino, Russia'",0.32,68.0653,b'IU',31,"b'Bilibino, Russia'"
116.1679,40.0183,"b'Baijiatuan, Beijing, China'",,clampToGround,b'BJT',57,116.1679,"b'Baijiatuan, Beijing, China'",0.197,40.0183,b'IC',32,"b'Baijiatuan, Beijing, China'"
-144.6051,60.9677,"b'Bremner River, AK, USA'",,clampToGround,b'BMR',58,-144.6051,"b'Bremner River, AK, USA'",0.842,60.9677,"b'AK, CREST, mag'",33,"b'Bremner River, AK, USA'"
-130.6368,53.4932,"b'Bonilla, BC, CA'",,clampToGround,b'BNAB',59,-130.6368,"b'Bonilla, BC, CA'",-0.019,53.4932,"b'CN, stheast, mag'",34,"b'Bonilla, BC, CA'"
-168.0347,53.9291,"b'Bogoslof, Bogoslof Volcano, Alaska'",,clampToGround,b'BOGO',60,-168.0347,"b'Bogoslof, Bogoslof Volcano, Alaska'",0.005,53.9291,"b'AV, mag'",35,"b'Bogoslof, Bogoslof Volcano, Alaska'"
-21.3268,64.7474,"b'Borgarfjordur, Asbjarnarstadir, Iceland'",,clampToGround,b'BORG',61,-21.3268,"b'Borgarfjordur, Asbjarnarstadir, Iceland'",0.11,64.7474,b'II',36,"b'Borgarfjordur, Asbjarnarstadir, Iceland'"
-150.9873,64.0997,"b'Bear Paw Mountain, AK, USA'",,clampToGround,b'BPAW',62,-150.9873,"b'Bear Paw Mountain, AK, USA'",0.619,64.0997,"b'mag, AK'",37,"b'Bear Paw Mountain, AK, USA'"
-163.7428,54.6446,"b'Brown Peak, Shishaldin Volcano, Alaska'",,clampToGround,b'BRPK',64,-163.7428,"b'Brown Peak, Shishaldin Volcano, Alaska'",0.393,54.6446,"b'AV, Shshldn, mag'",38,"b'Brown Peak, Shishaldin Volcano, Alaska'"
-150.7414,59.7417,"b'Bradley Lake South, AK, USA'",,clampToGround,b'BRSE',65,-150.7414,"b'Bradley Lake South, AK, USA'",0.541,59.7417,"b'AK, mag'",39,"b'Bradley Lake South, AK, USA'"
-139.4014,59.667,"b'Peninsula, AK, USA'",,clampToGround,b'PNL',390,-139.4014,"b'Peninsula, AK, USA'",0.586,59.667,"b'AK, stheast, mag'",296,"b'Peninsula, AK, USA'"
-149.3568,68.4215,"b'TAPS Pump Station 4, AK, USA'",,clampToGround,b'PS04',396,-149.3568,"b'TAPS Pump Station 4, AK, USA'",0.849,68.4215,"b'mag, AK'",302,"b'TAPS Pump Station 4, AK, USA'"
-145.7682,63.9299,"b'TAPS Pump Station 9, AK, USA'",,clampToGround,b'PS09',401,-145.7682,"b'TAPS Pump Station 9, AK, USA'",0.468,63.9299,"b'AK, mag'",307,"b'TAPS Pump Station 9, AK, USA'"
-130.0953,-25.0713,"b'Pitcairn Island, South Pacific'",,clampToGround,b'PTCN',407,-130.0953,"b'Pitcairn Island, South Pacific'",0.22,-25.0713,b'IU',312,"b'Pitcairn Island, South Pacific'"
-152.3942,58.6097,"b'Shuyak Island, AK, USA'",,clampToGround,b'Q20K',414,-152.3942,"b'Shuyak Island, AK, USA'",0.18,58.6097,"b'AV, mag'",319,"b'Shuyak Island, AK, USA'"
-144.6773,60.3863,"b'Ragged Mountain, AK, USA'",,clampToGround,b'RAG',422,-144.6773,"b'Ragged Mountain, AK, USA'",0.752,60.3863,"b'AK, mag'",325,"b'Ragged Mountain, AK, USA'"
-162.908,68.0541,"b'Red Dog Mine, AK, USA'",,clampToGround,b'RDOG',430,-162.908,"b'Red Dog Mine, AK, USA'",0.423,68.0541,"b'AK, mag'",331,"b'Red Dog Mine, AK, USA'"
-104.0359,44.1212,"b'Black Hills, South Dakota, USA'",,clampToGround,b'RSSD',440,-104.0359,"b'Black Hills, South Dakota, USA'",2.09,44.1212,b'IU',337,"b'Black Hills, South Dakota, USA'"
-23.6085,14.9702,"b'Santiago Island, Cape Verde'",,clampToGround,b'SACV',446,-23.6085,"b'Santiago Island, Cape Verde'",0.387,14.9702,b'II',343,"b'Santiago Island, Cape Verde'"
-143.9905,63.9761,"b'Sand Creek, AK, USA'",,clampToGround,b'SCRK',452,-143.9905,"b'Sand Creek, AK, USA'",1.375,63.9761,"b'AK, mag'",349,"b'Sand Creek, AK, USA'"
-135.3244,57.0569,"b'Sitka, Alaska'",,clampToGround,b'SIT',458,-135.3244,"b'Sitka, Alaska'",0.019,57.0569,"b'AT, mag, stheast, CREST'",355,"b'Sitka, Alaska'"
174.7043,-41.3087,"b'South Karori, New Zealand'",,clampToGround,b'SNZO',464,174.7043,"b'South Karori, New Zealand'",0.12,-41.3087,b'IU',361,"b'South Karori, New Zealand'"
103.7729,1.3608,"b'Bukit Timah Dairy Farm, Singapore'",,clampToGround,b'BTDF',67,103.7729,"b'Bukit Timah Dairy Farm, Singapore'",0.064,1.3608,b'MS',41,"b'Bukit Timah Dairy Farm, Singapore'"
-140.8606,62.4141,"b'Beaver Creek, YT, CA'",,clampToGround,b'BVCY',68,-140.8606,"b'Beaver Creek, YT, CA'",0.708,62.4141,"b'CN, mag'",42,"b'Beaver Creek, YT, CA'"
-149.2991,64.1732,"b'Browne, AK, USA'",,clampToGround,b'BWN',69,-149.2991,"b'Browne, AK, USA'",0.356,64.1732,"b'AK, mag'",43,"b'Browne, AK, USA'"
-165.3436,68.2746,"b'Lisburne Hills, AK, USA'",,clampToGround,b'C16K',70,-165.3436,"b'Lisburne Hills, AK, USA'",0.102,68.2746,"b'AK, mag'",44,"b'Lisburne Hills, AK, USA'"
-161.1943,68.6483,"b'Utukok River, AK, USA'",,clampToGround,b'C18K',71,-161.1943,"b'Utukok River, AK, USA'",0.845,68.6483,"b'AK, mag'",45,"b'Utukok River, AK, USA'"
-154.7833,69.1565,"b'Knifeblade Ridge, AK, USA'",,clampToGround,b'C21K',73,-154.7833,"b'Knifeblade Ridge, AK, USA'",0.409,69.1565,"b'AK, mag'",47,"b'Knifeblade Ridge, AK, USA'"
-150.6126,69.836,"b'Itkillik River, AK, USA'",,clampToGround,b'C23K',74,-150.6126,"b'Itkillik River, AK, USA'",0.179,69.836,"b'AK, mag'",48,"b'Itkillik River, AK, USA'"
-144.9122,69.9175,"b'Camden Bay, AK, USA'",,clampToGround,b'C26K',75,-144.9122,"b'Camden Bay, AK, USA'",0.139,69.9175,"b'AK, mag'",49,"b'Camden Bay, AK, USA'"
-143.7114,69.626,"b'Jago River, AK, USA'",,clampToGround,b'C27K',76,-143.7114,"b'Jago River, AK, USA'",0.392,69.626,"b'mag, AK'",50,"b'Jago River, AK, USA'"
-155.3036,58.0518,"b'Cahill, Katmai, Alaska'",,clampToGround,b'CAHL',77,-155.3036,"b'Cahill, Katmai, Alaska'",0.807,58.0518,"b'AV, Katmai, mag'",51,"b'Cahill, Katmai, Alaska'"
-152.0844,63.4188,"b'Castle Rocks, AK, USA'",,clampToGround,b'CAST',79,-152.0844,"b'Castle Rocks, AK, USA'",0.611,63.4188,"b'AK, mag'",53,"b'Castle Rocks, AK, USA'"
110.5354,-66.2792,"b'Casey, Antarctica'",,clampToGround,b'CASY',80,110.5354,"b'Casey, Antarctica'",0.01,-66.2792,b'IU',54,"b'Casey, Antarctica'"
-147.8053,64.6453,"b'Clear Creek Butte, AK, USA'",,clampToGround,b'CCB',81,-147.8053,"b'Clear Creek Butte, AK, USA'",0.233,64.6453,"b'AK, mag'",55,"b'Clear Creek Butte, AK, USA'"
-91.2446,38.0557,"b'Cathedral Cave, Missouri, USA'",,clampToGround,b'CCM',82,-91.2446,"b'Cathedral Cave, Missouri, USA'",0.222,38.0557,b'IU',56,"b'Cathedral Cave, Missouri, USA'"
179.6277,51.9302,"b'Cerberus Volcano, Cerberus Volcano, Alaska'",,clampToGround,b'CERB',86,179.6277,"b'Cerberus Volcano, Cerberus Volcano, Alaska'",0.305,51.9302,"b'Semisopo, AV, mag'",57,"b'Cerberus Volcano, Cerberus Volcano, Alaska'"
-155.6225,55.8218,"b'Chirikof Island, AK, USA'",,clampToGround,b'CHI',90,-155.6225,"b'Chirikof Island, AK, USA'",0.203,55.8218,"b'AK, mag'",59,"b'Chirikof Island, AK, USA'"
-159.5895,54.831,"b'Chernabura Island, AK, USA'",,clampToGround,b'CHN',91,-159.5895,"b'Chernabura Island, AK, USA'",0.071,54.831,"b'AK, mag'",60,"b'Chernabura Island, AK, USA'"
98.9443,18.8141,"b'Chiang Mai, Thailand'",,clampToGround,b'CHTO',92,98.9443,"b'Chiang Mai, Thailand'",0.42,18.8141,b'IU',61,"b'Chiang Mai, Thailand'"
-152.3152,63.8827,"b'Lake Minchumina, AK, USA'",,clampToGround,b'CHUM',93,-152.3152,"b'Lake Minchumina, AK, USA'",0.217,63.8827,"b'mag, AK'",62,"b'Lake Minchumina, AK, USA'"
-141.1178,60.0631,"b'Chaix Hills, AK, USA'",,clampToGround,b'CHX',94,-141.1178,"b'Chaix Hills, AK, USA'",1.085,60.0631,"b'AK, stheast, mag'",63,"b'Chaix Hills, AK, USA'"
-169.7229,52.7866,"b'Concord Point, Cleveland Volcano, Alaska'",,clampToGround,b'CLCO',95,-169.7229,"b'Concord Point, Cleveland Volcano, Alaska'",0.137,52.7866,"b'AV, mag, Clevlnd'",64,"b'Concord Point, Cleveland Volcano, Alaska'"
-120.3865,38.0346,"b'Columbia College, Columbia, CA, USA'",,clampToGround,b'CMB',97,-120.3865,"b'Columbia College, Columbia, CA, USA'",0.697,38.0346,b'BK',65,"b'Columbia College, Columbia, CA, USA'"
-25.5243,37.7637,"b'Cha de Macela, Sao Miguel Island, Azores'",,clampToGround,b'CMLA',98,-25.5243,"b'Cha de Macela, Sao Miguel Island, Azores'",0.429,37.7637,b'II',66,"b'Cha de Macela, Sao Miguel Island, Azores'"
-151.2373,59.5251,"b'China Poot, AK, USA'",,clampToGround,b'CNP',99,-151.2373,"b'China Poot, AK, USA'",0.564,59.5251,"b'AK, mag'",67,"b'China Poot, AK, USA'"
96.8349,-12.1901,"b'West Island, Cocos (Keeling) Islands'",,clampToGround,b'COCO',100,96.8349,"b'West Island, Cocos (Keeling) Islands'",0.001,-12.1901,b'II',68,"b'West Island, Cocos (Keeling) Islands'"
121.1908,31.0948,"b'Shanghai, China'",,clampToGround,b'SSE',477,121.1908,"b'Shanghai, China'",0.04,31.0948,b'IC',366,"b'Shanghai, China'"
-155.6217,61.1082,"b'Sparrevohn, Alaska'",,clampToGround,b'SVW2',485,-155.6217,"b'Sparrevohn, Alaska'",0.4988,61.1082,"b'AT, mag'",372,"b'Sparrevohn, Alaska'"
147.3204,-42.9099,"b'Hobart, Tasmania, Australia'",,clampToGround,b'TAU',494,147.3204,"b'Hobart, Tasmania, Australia'",0.132,-42.9099,b'II',378,"b'Hobart, Tasmania, Australia'"
-149.5724,68.6408,"b'Toolik Lake Research Station, AK, USA'",,clampToGround,b'TOLK',501,-149.5724,"b'Toolik Lake Research Station, AK, USA'",0.76,68.6408,"b'AK, mag'",384,"b'Toolik Lake Research Station, AK, USA'"
-110.7847,32.3098,"b'Tucson, Arizona'",,clampToGround,b'TUC',507,-110.7847,"b'Tucson, Arizona'",0.91,32.3098,b'IU',390,"b'Tucson, Arizona'"
-146.368,61.083,"b'Valdez Marine Terminal, AK, USA'",,clampToGround,b'VMT',514,-146.368,"b'Valdez Marine Terminal, AK, USA'",0.097,61.083,"b'AK, mag'",396,"b'Valdez Marine Terminal, AK, USA'"
-142.8529,60.448,"b'Waxell Ridge, AK, USA'",,clampToGround,b'WAX',522,-142.8529,"b'Waxell Ridge, AK, USA'",1.003,60.448,"b'AK, stheast, mag, ARRA'",402,"b'Waxell Ridge, AK, USA'"
87.7049,43.8138,"b'Urumqi, Xinjiang Province, China'",,clampToGround,b'WMQ',532,87.7049,"b'Urumqi, Xinjiang Province, China'",0.85,43.8138,b'IC',408,"b'Urumqi, Xinjiang Province, China'"
-164.3873,54.8466,"b'Tungamak, Westdahl Peak, Alaska'",,clampToGround,b'WTUG',537,-164.3873,"b'Tungamak, Westdahl Peak, Alaska'",0.636,54.8466,"b'AV, Westdahl, mag'",413,"b'Tungamak, Westdahl Peak, Alaska'"
-139.671,59.5121,"b'Yakutat, Alaska'",,clampToGround,b'YKU2',543,-139.671,"b'Yakutat, Alaska'",0.0101,59.5121,"b'AT, nomag'",419,"b'Yakutat, Alaska'"
-137.8593,61.1315,"b'Granite Creek, YT, CA'",,clampToGround,b'YUK5',549,-137.8593,"b'Granite Creek, YT, CA'",1.619,61.1315,"b'CN, stheast, mag'",425,"b'Granite Creek, YT, CA'"
-150.207,67.2278,"b'Coldfoot Broadband, AK, USA'",,clampToGround,b'COLD',102,-150.207,"b'Coldfoot Broadband, AK, USA'",0.374,67.2278,"b'mag, AK, CREST'",70,"b'Coldfoot Broadband, AK, USA'"
-123.3046,44.5855,"b'Corvallis, Oregon, USA'",,clampToGround,b'COR',103,-123.3046,"b'Corvallis, Oregon, USA'",0.11,44.5855,b'IU',71,"b'Corvallis, Oregon, USA'"
-133.123,55.4689,"b'Craig, Alaska'",,clampToGround,b'CRAG',104,-133.123,"b'Craig, Alaska'",0.0579,55.4689,"b'AT, mag, stheast'",72,"b'Craig, Alaska'"
-143.0926,60.7523,"b'Cirque, AK, USA'",,clampToGround,b'CRQ',105,-143.0926,"b'Cirque, AK, USA'",1.3923,60.7523,"b'AK, mag, ARRA'",73,"b'Cirque, AK, USA'"
146.2545,-20.0882,"b'Charters Towers, Australia'",,clampToGround,b'CTAO',106,146.2545,"b'Charters Towers, Australia'",0.357,-20.0882,b'IU',74,"b'Charters Towers, Australia'"
-142.4872,60.0823,"b'Cape Yakataga, AK, USA'",,clampToGround,b'CYK',108,-142.4872,"b'Cape Yakataga, AK, USA'",0.023,60.0823,"b'AK, stheast, mag, ARRA'",76,"b'Cape Yakataga, AK, USA'"
-163.0831,67.6988,"b'Noatak River, AK, USA'",,clampToGround,b'D17K',109,-163.0831,"b'Noatak River, AK, USA'",0.172,67.6988,"b'AK, mag'",77,"b'Noatak River, AK, USA'"
-156.6132,68.7132,"b'Etivluk River, AK, USA'",,clampToGround,b'D20K',110,-156.6132,"b'Etivluk River, AK, USA'",0.577,68.7132,"b'AK, mag'",78,"b'Etivluk River, AK, USA'"
-152.6821,68.8799,"b'Ayikyak River, AK, USA'",,clampToGround,b'D22K',111,-152.6821,"b'Ayikyak River, AK, USA'",0.532,68.8799,"b'mag, AK'",79,"b'Ayikyak River, AK, USA'"
-148.8233,69.1532,"b'Happy Valley, AK, USA'",,clampToGround,b'D24K',112,-148.8233,"b'Happy Valley, AK, USA'",0.292,69.1532,"b'AK, mag'",80,"b'Happy Valley, AK, USA'"
125.5791,7.0697,"b'Davao, Philippines'",,clampToGround,b'DAV',114,125.5791,"b'Davao, Philippines'",0.15,7.0697,b'IU',82,"b'Davao, Philippines'"
-139.3937,64.0647,"b'Dawson, YT, CA'",,clampToGround,b'DAWY',115,-139.3937,"b'Dawson, YT, CA'",0.771,64.0647,"b'CN, stheast, mag'",83,"b'Dawson, YT, CA'"
-138.2139,59.0905,"b'Deception Hills, AK, USA'",,clampToGround,b'DCPH',116,-138.2139,"b'Deception Hills, AK, USA'",0.669,59.0905,"b'AK, CREST, mag'",84,"b'Deception Hills, AK, USA'"
-162.3244,54.9713,"b'Deer Island, Alaska'",,clampToGround,b'DEER',117,-162.3244,"b'Deer Island, Alaska'",0.3923,54.9713,"b'FAI, Dutton'",85,"b'Deer Island, Alaska'"
72.4525,-7.4121,"b'Diego Garcia, Chagos Islands, Indian Ocean'",,clampToGround,b'DGAR',118,72.4525,"b'Diego Garcia, Chagos Islands, Indian Ocean'",0.001,-7.4121,b'II',86,"b'Diego Garcia, Chagos Islands, Indian Ocean'"
-132.4767,53.2025,"b'Dawson Inlet, BC, CA'",,clampToGround,b'DIB',120,-132.4767,"b'Dawson Inlet, BC, CA'",0.068,53.2025,b'mag',88,"b'Dawson Inlet, BC, CA'"
-145.7749,61.1292,"b'Divide Microwave, AK, USA'",,clampToGround,b'DIV',121,-145.7749,"b'Divide Microwave, AK, USA'",0.9414,61.1292,"b'CREST, AK, mag'",89,"b'Divide Microwave, AK, USA'"
-130.0272,58.4372,"b'Dease Lake, BC, CA'",,clampToGround,b'DLBC',122,-130.0272,"b'Dease Lake, BC, CA'",0.978,58.4372,"b'CN, stheast, mag'",90,"b'Dease Lake, BC, CA'"
-161.8638,55.1488,"b'Dolgoi Island, Mount Dutton, Alaska'",,clampToGround,b'DOL',123,-161.8638,"b'Dolgoi Island, Mount Dutton, Alaska'",0.439,55.1488,"b'AV, Pavlof, mag'",91,"b'Dolgoi Island, Mount Dutton, Alaska'"
-144.0674,63.6487,"b'Dot Lake, AK, USA'",,clampToGround,b'DOT',124,-144.0674,"b'Dot Lake, AK, USA'",0.673,63.6487,"b'AK, mag, CREST'",92,"b'Dot Lake, AK, USA'"
-81.4327,28.1103,"b'Disney Wilderness Preserve, Florida, USA'",,clampToGround,b'DWPF',127,-81.4327,"b'Disney Wilderness Preserve, Florida, USA'",0.03,28.1103,b'IU',94,"b'Disney Wilderness Preserve, Florida, USA'"
-160.6027,67.4213,"b'Tukpahlearik Creek, AK, USA'",,clampToGround,b'E18K',128,-160.6027,"b'Tukpahlearik Creek, AK, USA'",0.297,67.4213,"b'AK, mag'",95,"b'Tukpahlearik Creek, AK, USA'"
-157.2316,67.4572,"b'Redstone River, AK, USA'",,clampToGround,b'E19K',129,-157.2316,"b'Redstone River, AK, USA'",0.441,67.4572,"b'AK, mag'",96,"b'Redstone River, AK, USA'"
-153.9721,68.4414,"b'Killik River, AK, USA'",,clampToGround,b'E21K',130,-153.9721,"b'Killik River, AK, USA'",0.653,68.4414,"b'mag, AK'",97,"b'Killik River, AK, USA'"
-151.8132,68.1343,"b'Anaktuvuk Pass, AK, USA'",,clampToGround,b'E22K',131,-151.8132,"b'Anaktuvuk Pass, AK, USA'",0.772,68.1343,"b'mag, AK'",98,"b'Anaktuvuk Pass, AK, USA'"
-145.568,68.1207,"b'Arctic Village, AK, USA'",,clampToGround,b'E25K',133,-145.568,"b'Arctic Village, AK, USA'",0.652,68.1207,"b'AK, mag'",100,"b'Arctic Village, AK, USA'"
-141.5951,68.1861,"b'Coleen River, AK, USA'",,clampToGround,b'E27K',134,-141.5951,"b'Coleen River, AK, USA'",0.654,68.1861,"b'mag, AK'",101,"b'Coleen River, AK, USA'"
-58.0637,-51.6753,"b'Mount Kent, East Falkland Island'",,clampToGround,b'EFI',135,-58.0637,"b'Mount Kent, East Falkland Island'",0.11,-51.6753,b'II',102,"b'Mount Kent, East Falkland Island'"
-141.1581,64.7774,"b'Eagle, Central Alaska, Alaska, USA'",,clampToGround,b'EGAK',136,-141.1581,"b'Eagle, Central Alaska, Alaska, USA'",0.2966,64.7774,"b'US, mag'",103,"b'Eagle, Central Alaska, Alaska, USA'"
109.4944,30.2762,"b'Enshi, Hubei Province, China'",,clampToGround,b'ENH',137,109.4944,"b'Enshi, Hubei Province, China'",0.5,30.2762,b'IC',104,"b'Enshi, Hubei Province, China'"
-3.205,55.3167,"b'Eskdalemuir, Scotland, UK'",,clampToGround,b'ESK',139,-3.205,"b'Eskdalemuir, Scotland, UK'",0.242,55.3167,b'II',106,"b'Eskdalemuir, Scotland, UK'"
-145.75,60.5487,"b'Cordova Ski Area, AK, USA'",,clampToGround,b'EYAK',141,-145.75,"b'Cordova Ski Area, AK, USA'",0.1339,60.5487,"b'CREST, AK, mag'",107,"b'Cordova Ski Area, AK, USA'"
-164.6483,65.7077,"b'North Star Ditch, AK, USA'",,clampToGround,b'F15K',142,-164.6483,"b'North Star Ditch, AK, USA'",0.388,65.7077,"b'AK, mag'",108,"b'North Star Ditch, AK, USA'"
-159.6514,66.6001,"b'Selawik, AK, USA'",,clampToGround,b'F18K',143,-159.6514,"b'Selawik, AK, USA'",0.027,66.6001,"b'AK, mag'",109,"b'Selawik, AK, USA'"
-155.7251,67.0486,"b'Avaraart Lake, AK, USA'",,clampToGround,b'F20K',144,-155.7251,"b'Avaraart Lake, AK, USA'",0.136,67.0486,"b'mag, AK'",110,"b'Avaraart Lake, AK, USA'"
-163.4176,54.8564,"b'False Pass, AK, USA'",,clampToGround,b'FALS',146,-163.4176,"b'False Pass, AK, USA'",0.0606,54.8564,"b'mag, AK, CREST'",112,"b'False Pass, AK, USA'"
-133.3481,62.2296,"b'Faro, Yukon, CANADA'",,clampToGround,b'FARO',147,-133.3481,"b'Faro, Yukon, CANADA'",0,62.2296,b'NY',113,"b'Faro, Yukon, CANADA'"
-101.9783,54.725,"b'Flin Flon, Canada'",,clampToGround,b'FFC',148,-101.9783,"b'Flin Flon, Canada'",0.338,54.725,b'II',114,"b'Flin Flon, Canada'"
-146.5987,60.7277,"b'Fidalgo, AK, USA'",,clampToGround,b'FID',149,-146.5987,"b'Fidalgo, AK, USA'",0.5,60.7277,"b'AK, mag'",115,"b'Fidalgo, AK, USA'"
-150.2164,61.1426,"b'Fire Island, AK, USA'",,clampToGround,b'FIRE',150,-150.2164,"b'Fire Island, AK, USA'",0.062,61.1426,"b'AK, nomag, ARRA'",116,"b'Fire Island, AK, USA'"
179.1966,-8.5259,"b'Funafuti, Tuvalu'",,clampToGround,b'FUNA',152,179.1966,"b'Funafuti, Tuvalu'",0.02,-8.5259,b'IU',118,"b'Funafuti, Tuvalu'"
38.6798,8.8952,"b'Mt. Furi, Ethiopia'",,clampToGround,b'FURI',153,38.6798,"b'Mt. Furi, Ethiopia'",2.57,8.8952,b'IU',119,"b'Mt. Furi, Ethiopia'"
-145.2342,66.5657,"b'Fort Yukon, AK, USA'",,clampToGround,b'FYU',154,-145.2342,"b'Fort Yukon, AK, USA'",0.137,66.5657,"b'AK, mag'",120,"b'Fort Yukon, AK, USA'"
-160.6514,65.5011,"b'Kiwalik Mountain, AK, USA'",,clampToGround,b'G17K',155,-160.6514,"b'Kiwalik Mountain, AK, USA'",0.338,65.5011,"b'mag, AK'",121,"b'Kiwalik Mountain, AK, USA'"
-157.087,66.1434,"b'Purcell Mountains, AK, USA'",,clampToGround,b'G19K',156,-157.087,"b'Purcell Mountains, AK, USA'",0.391,66.1434,"b'AK, mag'",122,"b'Purcell Mountains, AK, USA'"
-147.4754,66.7004,"b'Hadweenzic River, AK, USA'",,clampToGround,b'G24K',158,-147.4754,"b'Hadweenzic River, AK, USA'",0.503,66.7004,"b'AK, mag'",124,"b'Hadweenzic River, AK, USA'"
-141.6549,66.8088,"b'Doyon Strip, AK, USA'",,clampToGround,b'G27K',159,-141.6549,"b'Doyon Strip, AK, USA'",0.686,66.8088,"b'mag, AK'",125,"b'Doyon Strip, AK, USA'"
-178.7488,51.7819,"b'East, Gareloi Volcano, Alaska'",,clampToGround,b'GAEA',160,-178.7488,"b'East, Gareloi Volcano, Alaska'",0.326,51.7819,"b'Gareloi, AV, mag'",126,"b'East, Gareloi Volcano, Alaska'"
-178.814,51.5534,"b'Kavalga Island, Gareloi Volcano, Alaska'",,clampToGround,b'GAKI',161,-178.814,"b'Kavalga Island, Gareloi Volcano, Alaska'",0.099,51.5534,"b'Gareloi, AV, Gareloi, mag'",127,"b'Kavalga Island, Gareloi Volcano, Alaska'"
-171.7036,63.7758,"b'Gambell, AK, USA'",,clampToGround,b'GAMB',163,-171.7036,"b'Gambell, AK, USA'",0.005,63.7758,"b'CREST, AK, mag'",128,"b'Gambell, AK, USA'"
-148.926,61.771,"b'Gloryhole, AK, USA'",,clampToGround,b'GHO',168,-148.926,"b'Gloryhole, AK, USA'",1.032,61.771,"b'mag, AK, ARRA'",130,"b'Gloryhole, AK, USA'"
-143.8123,61.4417,"b'Gilahina Butte, AK, USA'",,clampToGround,b'GLB',169,-143.8123,"b'Gilahina Butte, AK, USA'",0.8549,61.4417,"b'AK, stheast, mag'",131,"b'Gilahina Butte, AK, USA'"
-147.0959,60.8792,"b'Glacier Island, AK, USA'",,clampToGround,b'GLI',170,-147.0959,"b'Glacier Island, AK, USA'",0.43,60.8792,"b'AK, mag, ARRA'",132,"b'Glacier Island, AK, USA'"
44.741,40.148,"b'Garni, Armenia'",,clampToGround,b'GNI',171,44.741,"b'Garni, Armenia'",1.609,40.148,b'IU',133,"b'Garni, Armenia'"
-144.7292,60.5805,"b'Goat Mountain, AK, USA'",,clampToGround,b'GOAT',172,-144.7292,"b'Goat Mountain, AK, USA'",0.8955,60.5805,"b'AK, Steep, mag'",134,"b'Goat Mountain, AK, USA'"
11.2203,49.6909,"b'Grafenberg, Germany'",,clampToGround,b'GRFO',175,11.2203,"b'Grafenberg, Germany'",0.384,49.6909,b'IU',135,"b'Grafenberg, Germany'"
-141.7558,60.7315,"b'Granite Creek, AK, USA'",,clampToGround,b'GRNC',177,-141.7558,"b'Granite Creek, AK, USA'",2.116,60.7315,"b'AK, Steep, mag'",136,"b'Granite Creek, AK, USA'"
-175.927,51.9853,"b'Igitkin Island, Great Sitkin Volcano, Alaska'",,clampToGround,b'GSIG',179,-175.927,"b'Igitkin Island, Great Sitkin Volcano, Alaska'",0.407,51.9853,"b'AV, GrtStkn, mag'",137,"b'Igitkin Island, Great Sitkin Volcano, Alaska'"
-176.1777,52.0917,"b'Saddle Point, Great Sitkin Volcano, Alaska'",,clampToGround,b'GSSP',181,-176.1777,"b'Saddle Point, Great Sitkin Volcano, Alaska'",0.295,52.0917,"b'AV, GrtStkn, mag'",138,"b'Saddle Point, Great Sitkin Volcano, Alaska'"
144.8684,13.5893,"b'Guam, Mariana Islands'",,clampToGround,b'GUMO',184,144.8684,"b'Guam, Mariana Islands'",0.17,13.5893,b'IU',139,"b'Guam, Mariana Islands'"
-159.9126,64.937,"b'Granite Mountain, AK, USA'",,clampToGround,b'H17K',186,-159.9126,"b'Granite Mountain, AK, USA'",0.396,64.937,"b'AK, mag'",141,"b'Granite Mountain, AK, USA'"
-154.8808,65.4924,"b'Anotleneega Mountain, AK, USA'",,clampToGround,b'H20K',187,-154.8808,"b'Anotleneega Mountain, AK, USA'",0.514,65.4924,"b'AK, mag'",142,"b'Anotleneega Mountain, AK, USA'"
-152.805,65.6571,"b'Melozitna River, AK, USA'",,clampToGround,b'H21K',188,-152.805,"b'Melozitna River, AK, USA'",0.52,65.6571,"b'AK, mag'",143,"b'Melozitna River, AK, USA'"
-151.3773,65.8937,"b'Ishtalitna Creek, AK, USA'",,clampToGround,b'H22K',189,-151.3773,"b'Ishtalitna Creek, AK, USA'",0.561,65.8937,"b'AK, mag'",144,"b'Ishtalitna Creek, AK, USA'"
-147.8781,65.8371,"b'Noodor Dome, AK, USA'",,clampToGround,b'H24K',191,-147.8781,"b'Noodor Dome, AK, USA'",0.814,65.8371,"b'AK, mag'",145,"b'Noodor Dome, AK, USA'"
119.7414,49.2704,"b'Hailar, Neimenggu Province, China'",,clampToGround,b'HIA',194,119.7414,"b'Hailar, Neimenggu Province, China'",0.62,49.2704,b'IC',147,"b'Hailar, Neimenggu Province, China'"
-146.5035,60.396,"b'Hinchinbrook, AK, USA'",,clampToGround,b'HIN',195,-146.5035,"b'Hinchinbrook, AK, USA'",0.6229,60.396,"b'AK, mag, ARRA'",148,"b'Hinchinbrook, AK, USA'"
-95.8384,29.9618,"b'Hockley, Texas'",,clampToGround,b'HKT',196,-95.8384,"b'Hockley, Texas'",-0.413,29.9618,b'IU',149,"b'Hockley, Texas'"
159.9475,-9.4387,"b'Honiara, Solomon Islands'",,clampToGround,b'HNR',197,159.9475,"b'Honiara, Solomon Islands'",0.1,-9.4387,b'IU',150,"b'Honiara, Solomon Islands'"
-151.6515,59.6572,"b'Homer Trailer, AK, USA'",,clampToGround,b'HOM',198,-151.6515,"b'Homer Trailer, AK, USA'",0.221,59.6572,"b'AK, nomag'",151,"b'Homer Trailer, AK, USA'"
-137.5072,60.8267,"b'Haines Jct., YT, CA'",,clampToGround,b'HYT',200,-137.5072,"b'Haines Jct., YT, CA'",1.373,60.8267,"b'CN, stheast, mag'",153,"b'Haines Jct., YT, CA'"
-151.9822,65.18,"b'Tanana, AK, USA'",,clampToGround,b'I21K',201,-151.9822,"b'Tanana, AK, USA'",0.248,65.18,"b'AK, mag'",154,"b'Tanana, AK, USA'"
-149.3603,65.1479,"b'Minto, Yukon-Koyukuk, AK, USA'",,clampToGround,b'I23K',202,-149.3603,"b'Minto, Yukon-Koyukuk, AK, USA'",0.149,65.1479,"b'AK, mag'",155,"b'Minto, Yukon-Koyukuk, AK, USA'"
-143.1541,65.3064,"b'Coal Creek Mining Camp, AK, USA'",,clampToGround,b'I26K',203,-143.1541,"b'Coal Creek Mining Camp, AK, USA'",0.338,65.3064,"b'mag, AK'",156,"b'Coal Creek Mining Camp, AK, USA'"
-4.014,14.4967,"b'Kowa, Mali'",,clampToGround,b'KOWA',270,-4.014,"b'Kowa, Mali'",0.321,14.4967,b'IU',199,"b'Kowa, Mali'"
-146.8866,64.7714,"b'ILAR Array, Eilson, AK, USA'",,clampToGround,b'IL31',205,-146.8866,"b'ILAR Array, Eilson, AK, USA'",0.419,64.7714,b'IM',158,"b'ILAR Array, Eilson, AK, USA'"
-153.0232,59.8223,"b'Iliamna Volcano, Alaska'",,clampToGround,b'ILCB',207,-153.0232,"b'Iliamna Volcano, Alaska'",0.712,59.8223,b'Iliamna',159,"b'Iliamna Volcano, Alaska'"
-153.1392,60.0592,"b'Iliamna West, Iliamna Volcano, Alaska'",,clampToGround,b'ILW',211,-153.1392,"b'Iliamna West, Iliamna Volcano, Alaska'",1.646,60.0592,"b'AV, Iliamna, nomag'",160,"b'Iliamna West, Iliamna Volcano, Alaska'"
126.6239,37.4776,"b'Inchon, Republic of Korea'",,clampToGround,b'INCN',212,126.6239,"b'Inchon, Republic of Korea'",0.08,37.4776,b'IU',161,"b'Inchon, Republic of Korea'"
-133.5254,68.3065,"b'Inuvik, NT, CA'",,clampToGround,b'INK',213,-133.5254,"b'Inuvik, NT, CA'",0.044,68.3065,"b'CN, stheast, mag'",162,"b'Inuvik, NT, CA'"
-163.7804,54.8314,"b'Isanotski North, Isanotski, Alaska'",,clampToGround,b'ISNN',216,-163.7804,"b'Isanotski North, Isanotski, Alaska'",0.466,54.8314,"b'AV, Shshldn, nomag'",164,"b'Isanotski North, Isanotski, Alaska'"
-159.0777,63.3965,"b'VABM Dome, AK, USA'",,clampToGround,b'J17K',218,-159.0777,"b'VABM Dome, AK, USA'",0.323,63.3965,"b'AK, mag'",165,"b'VABM Dome, AK, USA'"
-155.6214,63.994,"b'Poorman, AK, USA'",,clampToGround,b'J19K',219,-155.6214,"b'Poorman, AK, USA'",0.389,63.994,"b'AK, mag'",166,"b'Poorman, AK, USA'"
-154.1467,64.1767,"b'Nowitna River, AK, USA'",,clampToGround,b'J20K',220,-154.1467,"b'Nowitna River, AK, USA'",0.314,64.1767,"b'AK, mag'",167,"b'Nowitna River, AK, USA'"
-145.3697,64.613,"b'Salcha River, AK, USA'",,clampToGround,b'J25K',221,-145.3697,"b'Salcha River, AK, USA'",0.949,64.613,"b'AK, mag'",168,"b'Salcha River, AK, USA'"
-134.3848,58.2758,"b'Juneau Island, AK, USA'",,clampToGround,b'JIS',223,-134.3848,"b'Juneau Island, AK, USA'",0.01,58.2758,"b'AK, mag, ARRA'",170,"b'Juneau Island, AK, USA'"
-169.5292,16.7329,"b'Johnston Island, USA'",,clampToGround,b'JOHN',224,-169.5292,"b'Johnston Island, USA'",0.002,16.7329,b'IU',171,"b'Johnston Island, USA'"
-84.9525,10.2908,"b'Las Juntas de Abangares, Costa Rica'",,clampToGround,b'JTS',225,-84.9525,"b'Las Juntas de Abangares, Costa Rica'",0.34,10.2908,b'II',172,"b'Las Juntas de Abangares, Costa Rica'"
-164.6555,61.9331,"b'Kusilvak Mountain, AK, USA'",,clampToGround,b'K13K',226,-164.6555,"b'Kusilvak Mountain, AK, USA'",0.2042,61.9331,"b'AK, mag'",173,"b'Kusilvak Mountain, AK, USA'"
-161.5308,62.2938,"b'Wolf Creek Mountain, AK, USA'",,clampToGround,b'K15K',227,-161.5308,"b'Wolf Creek Mountain, AK, USA'",0.346,62.2938,"b'mag, AK'",174,"b'Wolf Creek Mountain, AK, USA'"
-142.0758,64.0292,"b'Chicken, AK, USA'",,clampToGround,b'K27K',230,-142.0758,"b'Chicken, AK, USA'",0.732,64.0292,"b'AK, mag'",176,"b'Chicken, AK, USA'"
-154.9762,58.1312,"b'Katmai Barrier Ridge Two, Alaska'",,clampToGround,b'KAB2',231,-154.9762,"b'Katmai Barrier Ridge Two, Alaska'",0.908,58.1312,b'Katmai',177,"b'Katmai Barrier Ridge Two, Alaska'"
-144.4188,59.9268,"b'Kayak Island, AK, USA'",,clampToGround,b'KAI',234,-144.4188,"b'Kayak Island, AK, USA'",0.316,59.9268,"b'AK, mag, ARRA'",178,"b'Kayak Island, AK, USA'"
-154.3489,58.5961,"b'Katmai Pasha, Alaska'",,clampToGround,b'KAPH',236,-154.3489,"b'Katmai Pasha, Alaska'",0.907,58.5961,"b'AV, Katmai, mag'",179,"b'Katmai Pasha, Alaska'"
119.7517,-5.0142,"b'Kappang, Sulawesi, Indonesia'",,clampToGround,b'KAPI',237,119.7517,"b'Kappang, Sulawesi, Indonesia'",0.3,-5.0142,b'II',180,"b'Kappang, Sulawesi, Indonesia'"
11.9385,78.9154,"b'Ny-Alesund, Spitzbergen, Norway'",,clampToGround,b'KBS',242,11.9385,"b'Ny-Alesund, Spitzbergen, Norway'",0.09,78.9154,b'IU',182,"b'Ny-Alesund, Spitzbergen, Norway'"
-152.5835,57.7828,"b'Kodiak Island, Alaska, USA'",,clampToGround,b'KDAK',244,-152.5835,"b'Kodiak Island, Alaska, USA'",0.152,57.7828,"b'II, mag'",183,"b'Kodiak Island, Alaska, USA'"
-155.7428,58.4393,"b'Katmai Kelez, Alaska'",,clampToGround,b'KEL',245,-155.7428,"b'Katmai Kelez, Alaska'",0.975,58.4393,"b'AV, Katmai, mag'",184,"b'Katmai Kelez, Alaska'"
27.0035,69.7565,"b'Kevo, Finland'",,clampToGround,b'KEV',246,27.0035,"b'Kevo, Finland'",0.1,69.7565,b'IU',185,"b'Kevo, Finland'"
-143.251,60.4427,"b'Khitrov Hills, AK, USA'",,clampToGround,b'KHIT',247,-143.251,"b'Khitrov Hills, AK, USA'",1.101,60.4427,"b'mag, AK, Steep'",186,"b'Khitrov Hills, AK, USA'"
29.2242,50.7012,"b'Kiev, Ukraine'",,clampToGround,b'KIEV',250,29.2242,"b'Kiev, Ukraine'",0.18,50.7012,b'IU',188,"b'Kiev, Ukraine'"
-177.2369,51.7605,"b'MID Benchmark, Kanaga Volcano, Alaska'",,clampToGround,b'KIMD',252,-177.2369,"b'MID Benchmark, Kanaga Volcano, Alaska'",0.183,51.7605,"b'AV, Kanaga, mag'",189,"b'MID Benchmark, Kanaga Volcano, Alaska'"
-177.1296,51.9303,"b'North Cape, Kanaga Volcano, Alaska'",,clampToGround,b'KINC',253,-177.1296,"b'North Cape, Kanaga Volcano, Alaska'",0.198,51.9303,"b'AV, Kanaga, mag'",190,"b'North Cape, Kanaga Volcano, Alaska'"
-158.0112,21.42,"b'Kipapa, Hawaii, USA'",,clampToGround,b'KIP',254,-158.0112,"b'Kipapa, Hawaii, USA'",0.11,21.42,b'IU',191,"b'Kipapa, Hawaii, USA'"
42.6863,43.9553,"b'Kislovodsk, Russia'",,clampToGround,b'KIV',256,42.6863,"b'Kislovodsk, Russia'",1.054,43.9553,b'II',192,"b'Kislovodsk, Russia'"
37.2525,-1.1271,"b'Kilima Mbogo, Kenya'",,clampToGround,b'KMBO',260,37.2525,"b'Kilima Mbogo, Kenya'",1.95,-1.1271,b'IU',194,"b'Kilima Mbogo, Kenya'"
102.74,25.1233,"b'Kunming, Yunnan Province, China'",,clampToGround,b'KMI',261,102.74,"b'Kunming, Yunnan Province, China'",1.975,25.1233,b'IC',195,"b'Kunming, Yunnan Province, China'"
-148.4585,61.4131,"b'Knik Glacier, AK, USA'",,clampToGround,b'KNK',262,-148.4585,"b'Knik Glacier, AK, USA'",0.598,61.4131,"b'AK, mag'",196,"b'Knik Glacier, AK, USA'"
9.5982,59.6491,"b'Kongsberg, Norway'",,clampToGround,b'KONO',267,9.5982,"b'Kongsberg, Norway'",0.216,59.6491,b'IU',197,"b'Kongsberg, Norway'"
-174.2125,52.3954,"b'Northwest, Korovin Volcano, Alaska'",,clampToGround,b'KONW',268,-174.2125,"b'Northwest, Korovin Volcano, Alaska'",0.334,52.3954,"b'Korovin, AV, mag'",198,"b'Northwest, Korovin Volcano, Alaska'"
78.6202,50.7154,"b'Kurchatov, Kazakhstan'",,clampToGround,b'KURK',273,78.6202,"b'Kurchatov, Kazakhstan'",0.184,50.7154,b'II',201,"b'Kurchatov, Kazakhstan'"
-155.2971,58.381,"b'Katmai Valley of 10,000 Smokes, Alaska'",,clampToGround,b'KVT',274,-155.2971,"b'Katmai Valley of 10,000 Smokes, Alaska'",0.457,58.381,"b'AV, Katmai, mag'",202,"b'Katmai Valley of 10,000 Smokes, Alaska'"
167.613,8.8019,"b'Kwajalein Atoll, Pacific Ocean'",,clampToGround,b'KWAJ',275,167.613,"b'Kwajalein Atoll, Pacific Ocean'",0,8.8019,b'II',203,"b'Kwajalein Atoll, Pacific Ocean'"
-162.6829,61.3416,"b'Kuka Creek, AK, USA'",,clampToGround,b'L14K',276,-162.6829,"b'Kuka Creek, AK, USA'",0.041,61.3416,"b'AK, mag'",204,"b'Kuka Creek, AK, USA'"
-159.4747,61.7105,"b'Owhat River, AK, USA'",,clampToGround,b'L16K',277,-159.4747,"b'Owhat River, AK, USA'",0.227,61.7105,"b'AK, mag'",205,"b'Owhat River, AK, USA'"
-156.6886,62.2195,"b'Granite Mountain, AK, USA'",,clampToGround,b'L18K',279,-156.6886,"b'Granite Mountain, AK, USA'",0.329,62.2195,"b'AK, mag'",207,"b'Granite Mountain, AK, USA'"
-154.8543,62.1816,"b'White Mountain, AK, USA'",,clampToGround,b'L19K',280,-154.8543,"b'White Mountain, AK, USA'",0.65,62.1816,"b'mag, AK'",208,"b'White Mountain, AK, USA'"
-153.8798,62.4787,"b'Farewell, AK, USA'",,clampToGround,b'L20K',281,-153.8798,"b'Farewell, AK, USA'",0.673,62.4787,"b'mag, AK'",209,"b'Farewell, AK, USA'"
-150.7703,62.5258,"b'Petersville, AK, USA'",,clampToGround,b'L22K',282,-150.7703,"b'Petersville, AK, USA'",0.817,62.5258,"b'AK, mag'",210,"b'Petersville, AK, USA'"
-143.3478,63.0254,"b'Log Cabin Wilderness Lodge, Tok, AK, USA'",,clampToGround,b'L26K',283,-143.3478,"b'Log Cabin Wilderness Lodge, Tok, AK, USA'",0.65,63.0254,"b'AK, mag'",211,"b'Log Cabin Wilderness Lodge, Tok, AK, USA'"
-70.7004,-29.011,"b'Las Campanas Astronomical Observatory, Chile'",,clampToGround,b'LCO',285,-70.7004,"b'Las Campanas Astronomical Observatory, Chile'",2.3,-29.011,b'IU',213,"b'Las Campanas Astronomical Observatory, Chile'"
-141.0048,60.824,"b'Logan Glacier, AK, USA'",,clampToGround,b'LOGN',286,-141.0048,"b'Logan Glacier, AK, USA'",1.6631,60.824,"b'AK, Steep, mag'",214,"b'Logan Glacier, AK, USA'"
91.127,29.7031,"b'Tibet, China'",,clampToGround,b'LSA',287,91.127,"b'Tibet, China'",3.66,29.7031,b'IC',215,"b'Tibet, China'"
178.567,51.932,"b'Southeast, Little Sitkin Volcano, Alaska'",,clampToGround,b'LSSE',291,178.567,"b'Southeast, Little Sitkin Volcano, Alaska'",0.335,51.932,"b'LtlStkn, AV, mag'",216,"b'Southeast, Little Sitkin Volcano, Alaska'"
28.1882,-15.2779,"b'Lusaka, Zambia'",,clampToGround,b'LSZ',292,28.1882,"b'Lusaka, Zambia'",1.2,-15.2779,b'IU',217,"b'Lusaka, Zambia'"
34.6514,67.8979,"b'Lovozero, Russia'",,clampToGround,b'LVZ',295,34.6514,"b'Lovozero, Russia'",0.63,67.8979,b'II',219,"b'Lovozero, Russia'"
-166.2011,60.3849,"b'Mekoryuk, AK, USA'",,clampToGround,b'M11K',296,-166.2011,"b'Mekoryuk, AK, USA'",0.003,60.3849,"b'AK, mag'",220,"b'Mekoryuk, AK, USA'"
-161.96,60.7515,"b'Bethel, AK, USA'",,clampToGround,b'M14K',297,-161.96,"b'Bethel, AK, USA'",0.019,60.7515,"b'AK, mag'",221,"b'Bethel, AK, USA'"
-158.9593,61.0224,"b'Timber Creek, AK, USA'",,clampToGround,b'M16K',298,-158.9593,"b'Timber Creek, AK, USA'",0.394,61.0224,"b'mag, AK'",222,"b'Timber Creek, AK, USA'"
-154.3915,61.9037,"b'Big River Lodge, Big River, AK, USA'",,clampToGround,b'M19K',299,-154.3915,"b'Big River Lodge, Big River, AK, USA'",0.521,61.9037,"b'mag, AK'",223,"b'Big River Lodge, Big River, AK, USA'"
-147.7262,61.7929,"b'Glacier View, AK, USA'",,clampToGround,b'M23K',301,-147.7262,"b'Glacier View, AK, USA'",0.583,61.7929,"b'AK, mag'",225,"b'Glacier View, AK, USA'"
-142.9963,62.4013,"b'Nabesna, AK, USA'",,clampToGround,b'M26K',302,-142.9963,"b'Nabesna, AK, USA'",0.888,62.4013,"b'AK, mag'",226,"b'Nabesna, AK, USA'"
-141.878,62.3579,"b'Edge Creek, AK, USA'",,clampToGround,b'M27K',303,-141.878,"b'Edge Creek, AK, USA'",1.536,62.3579,"b'AK, mag'",227,"b'Edge Creek, AK, USA'"
150.77,59.5756,"b'Magadan, Russia'",,clampToGround,b'MA2',304,150.77,"b'Magadan, Russia'",0.339,59.5756,b'IU',228,"b'Magadan, Russia'"
138.2041,36.5457,"b'Matsushiro, Japan'",,clampToGround,b'MAJO',305,138.2041,"b'Matsushiro, Japan'",0.405,36.5457,b'IU',229,"b'Matsushiro, Japan'"
-166.9407,53.8082,"b'Pakushin Southeast, Makushin Volcano, Alaska'",,clampToGround,b'MAPS',307,-166.9407,"b'Pakushin Southeast, Makushin Volcano, Alaska'",0.333,53.8082,"b'AV, mag, Makshn'",231,"b'Pakushin Southeast, Makushin Volcano, Alaska'"
-135.8921,63.5958,"b'Mayo, Yukon, CANADA'",,clampToGround,b'MAYO',308,-135.8921,"b'Mayo, Yukon, CANADA'",0,63.5958,b'NY',232,"b'Mayo, Yukon, CANADA'"
30.7382,-0.6019,"b'Mbarara, Uganda'",,clampToGround,b'MBAR',309,30.7382,"b'Mbarara, Uganda'",1.39,-0.6019,b'II',233,"b'Mbarara, Uganda'"
119.7313,-21.159,"b'Marble Bar, Western Australia'",,clampToGround,b'MBWA',310,119.7313,"b'Marble Bar, Western Australia'",0.19,-21.159,b'IU',234,"b'Marble Bar, Western Australia'"
-143.024,61.3836,"b'McCarthy VSAT, AK, USA'",,clampToGround,b'MCAR',311,-143.024,"b'McCarthy VSAT, AK, USA'",0.447,61.3836,"b'AK, Steep, mag'",235,"b'McCarthy VSAT, AK, USA'"
158.9561,-54.4986,"b'Macquarie Island, Australia'",,clampToGround,b'MCQ',314,158.9561,"b'Macquarie Island, Australia'",0.014,-54.4986,b'AU',237,"b'Macquarie Island, Australia'"
129.5908,44.617,"b'Mudanjiang, Heilongjiang Province, China'",,clampToGround,b'MDJ',315,129.5908,"b'Mudanjiang, Heilongjiang Province, China'",0.27,44.617,b'IC',238,"b'Mudanjiang, Heilongjiang Province, China'"
-148.2319,64.9602,"b'Murphy Dome, AK, USA'",,clampToGround,b'MDM',316,-148.2319,"b'Murphy Dome, AK, USA'",0.631,64.9602,"b'AK, mag'",239,"b'Murphy Dome, AK, USA'"
-143.7194,62.938,"b'Mentasta, Alaska'",,clampToGround,b'MENT',317,-143.7194,"b'Mentasta, Alaska'",0.702,62.938,"b'AT, mag'",240,"b'Mentasta, Alaska'"
-141.9498,60.1782,"b'Mesa, AK, USA'",,clampToGround,b'MESA',318,-141.9498,"b'Mesa, AK, USA'",1.907,60.1782,"b'AK, Steep, mag'",241,"b'Mesa, AK, USA'"
-150.7442,65.0304,"b'Manley Hot Springs, AK, USA'",,clampToGround,b'MLY',323,-150.7442,"b'Manley Hot Springs, AK, USA'",0.812,65.0304,"b'AK, mag'",243,"b'Manley Hot Springs, AK, USA'"
-131.2625,62.6189,"b'Sheldon Lake, Yukon, CANADA'",,clampToGround,b'MMPY',324,-131.2625,"b'Sheldon Lake, Yukon, CANADA'",0,62.6189,b'NY',244,"b'Sheldon Lake, Yukon, CANADA'"
-131.9663,53.1437,"b'Moresby, BC, CA'",,clampToGround,b'MOBC',326,-131.9663,"b'Moresby, BC, CA'",0.675,53.1437,"b'CN, mag'",245,"b'Moresby, BC, CA'"
55.4792,-4.6737,"b'Mahe, Seychelles'",,clampToGround,b'MSEY',328,55.4792,"b'Mahe, Seychelles'",0.475,-4.6737,b'II',246,"b'Mahe, Seychelles'"
13.6116,-1.6557,"b'Masuku, Gabon'",,clampToGround,b'MSKU',329,13.6116,"b'Masuku, Gabon'",0.312,-1.6557,b'IU',247,"b'Masuku, Gabon'"
-166.6813,53.968,"b'Table Top, Makushin Volcano, Alaska'",,clampToGround,b'MTBL',332,-166.6813,"b'Table Top, Makushin Volcano, Alaska'",0.81,53.968,"b'AV, Makshn, mag'",249,"b'Table Top, Makushin Volcano, Alaska'"
-160.0921,60.1686,"b'Kwethluk River, AK, USA'",,clampToGround,b'N15K',333,-160.0921,"b'Kwethluk River, AK, USA'",0.449,60.1686,"b'mag, AK'",250,"b'Kwethluk River, AK, USA'"
-155.8897,60.6801,"b'Kilae Creek, AK, USA'",,clampToGround,b'N18K',334,-155.8897,"b'Kilae Creek, AK, USA'",0.572,60.6801,"b'mag, AK'",251,"b'Kilae Creek, AK, USA'"
-154.4838,60.8132,"b'Bonanza Creek NPS repeater, AK, USA'",,clampToGround,b'N19K',335,-154.4838,"b'Bonanza Creek NPS repeater, AK, USA'",1.144,60.8132,"b'mag, AK'",252,"b'Bonanza Creek NPS repeater, AK, USA'"
-144.5982,61.6061,"b'Chitina, Valdez-Cordova, AK, USA'",,clampToGround,b'N25K',337,-144.5982,"b'Chitina, Valdez-Cordova, AK, USA'",1.087,61.6061,"b'AV, mag'",253,"b'Chitina, Valdez-Cordova, AK, USA'"
-122.4878,59.7735,b'Northern British Columbia Site Two',,clampToGround,b'NBC2',339,-122.4878,b'Northern British Columbia Site Two',0.486,59.7735,b'mag',255,b'Northern British Columbia Site Two'
-120.6688,59.6372,b'Northern British Columbia Site Three',,clampToGround,b'NBC3',340,-120.6688,b'Northern British Columbia Site Three',0.452,59.6372,b'mag',256,b'Northern British Columbia Site Three'
-132.9417,53.955,"b'Naden, BC, CA'",,clampToGround,b'NDB',342,-132.9417,"b'Naden, BC, CA'",0.686,53.955,"b'CN, stheast, mag'",257,"b'Naden, BC, CA'"
-149.0694,64.5928,"b'Nenana, AK, USA'",,clampToGround,b'NEA2',343,-149.0694,"b'Nenana, AK, USA'",0.45,64.5928,"b'AK, mag'",258,"b'Nenana, AK, USA'"
-143.9713,60.2357,"b'Nichawak Mountain, AK, USA'",,clampToGround,b'NICH',344,-143.9713,"b'Nichawak Mountain, AK, USA'",0.485,60.2357,"b'mag, AK, Steep'",259,"b'Nichawak Mountain, AK, USA'"
73.2686,33.6506,"b'Nilore, Pakistan'",,clampToGround,b'NIL',346,73.2686,"b'Nilore, Pakistan'",0.629,33.6506,b'II',261,"b'Nilore, Pakistan'"
-76.8422,-11.9875,"b'Nana, Peru'",,clampToGround,b'NNA',347,-76.8422,"b'Nana, Peru'",0.575,-11.9875,b'II',262,"b'Nana, Peru'"
88.4414,69.5049,"b'Norilsk, Russia'",,clampToGround,b'NRIL',348,88.4414,"b'Norilsk, Russia'",0.092,69.5049,b'II',263,"b'Norilsk, Russia'"
117.239,-32.9277,"b'Narrogin, Australia'",,clampToGround,b'NWAO',349,117.239,"b'Narrogin, Australia'",0.38,-32.9277,b'IU',264,"b'Narrogin, Australia'"
-161.2638,59.2533,"b'Tigyukauivet Mountain, AK, USA'",,clampToGround,b'O14K',350,-161.2638,"b'Tigyukauivet Mountain, AK, USA'",0.129,59.2533,"b'mag, AK'",265,"b'Tigyukauivet Mountain, AK, USA'"
-154.3201,60.1952,"b'Port Alsworth, AK, USA'",,clampToGround,b'O19K',352,-154.3201,"b'Port Alsworth, AK, USA'",0.096,60.1952,"b'mag, AK'",267,"b'Port Alsworth, AK, USA'"
-152.624,60.0815,"b'Slope Mountain, AK, USA'",,clampToGround,b'O20K',353,-152.624,"b'Slope Mountain, AK, USA'",0.915,60.0815,"b'AK, mag'",268,"b'Slope Mountain, AK, USA'"
-149.7241,60.4814,"b'Cooper Landing, AK, USA'",,clampToGround,b'O22K',354,-149.7241,"b'Cooper Landing, AK, USA'",0.14,60.4814,"b'TA, nomag'",269,"b'Cooper Landing, AK, USA'"
36.5674,55.1146,"b'Obninsk, Russia'",,clampToGround,b'OBN',355,36.5674,"b'Obninsk, Russia'",0.16,55.1146,b'II',270,"b'Obninsk, Russia'"
-153.2875,57.2225,"b'Old Harbor, Alaska'",,clampToGround,b'OHAK',356,-153.2875,"b'Old Harbor, Alaska'",0.0775,57.2225,"b'AT, mag'",271,"b'Old Harbor, Alaska'"
-78.4508,0.2376,"b'Otavalo, Ecuador'",,clampToGround,b'OTAV',364,-78.4508,"b'Otavalo, Ecuador'",3.51,0.2376,b'IU',273,"b'Otavalo, Ecuador'"
-169.5484,56.6011,"b'Saint George Island, AK, USA'",,clampToGround,b'P08K',365,-169.5484,"b'Saint George Island, AK, USA'",0.036,56.6011,"b'AK, mag'",274,"b'Saint George Island, AK, USA'"
-157.9906,59.0314,"b'Nushagak River, AK, USA'",,clampToGround,b'P16K',366,-157.9906,"b'Nushagak River, AK, USA'",0.0859,59.0314,"b'mag, AK'",275,"b'Nushagak River, AK, USA'"
-156.4394,59.1953,"b'Kvichak River, AK, USA'",,clampToGround,b'P17K',367,-156.4394,"b'Kvichak River, AK, USA'",0.091,59.1953,"b'AK, mag'",276,"b'Kvichak River, AK, USA'"
-155.2292,59.3922,"b'Big Mountain, AK, USA'",,clampToGround,b'P18K',368,-155.2292,"b'Big Mountain, AK, USA'",0.68,59.3922,"b'AV, mag'",277,"b'Big Mountain, AK, USA'"
-147.4031,59.9979,"b'Montague Island, AK, USA'",,clampToGround,b'P23K',370,-147.4031,"b'Montague Island, AK, USA'",0.287,59.9979,"b'nomag, AK'",279,"b'Montague Island, AK, USA'"
-4.3499,39.5446,"b'San Pablo, Spain'",,clampToGround,b'PAB',371,-4.3499,"b'San Pablo, Spain'",0.95,39.5446,b'IU',280,"b'San Pablo, Spain'"
80.7022,7.2728,"b'Pallekele, Sri Lanka'",,clampToGround,b'PALK',372,80.7022,"b'Pallekele, Sri Lanka'",0.46,7.2728,b'II',281,"b'Pallekele, Sri Lanka'"
-145.4699,62.9699,"b'Paxson, AK, USA'",,clampToGround,b'PAX',373,-145.4699,"b'Paxson, AK, USA'",1.15,62.9699,"b'AK, mag, CREST'",282,"b'Paxson, AK, USA'"
-90.2861,-0.6742,"b'Puerto Ayora, Galapagos Islands'",,clampToGround,b'PAYG',374,-90.2861,"b'Puerto Ayora, Galapagos Islands'",0.27,-0.6742,b'IU',283,"b'Puerto Ayora, Galapagos Islands'"
158.6499,53.0233,"b'Petropavlovsk, Russia'",,clampToGround,b'PET',376,158.6499,"b'Petropavlovsk, Russia'",0.11,53.0233,b'IU',285,"b'Petropavlovsk, Russia'"
-116.4555,33.6107,"b'Pinon Flat, California, USA'",,clampToGround,b'PFO',377,-116.4555,"b'Pinon Flat, California, USA'",1.28,33.6107,b'II',286,"b'Pinon Flat, California, USA'"
-127.433,50.7067,"b'Port Hardy, BC, CA'",,clampToGround,b'PHC',378,-127.433,"b'Port Hardy, BC, CA'",0.032,50.7067,b'mag',287,"b'Port Hardy, BC, CA'"
-140.2525,60.0959,"b'Pinnacle, AK, USA'",,clampToGround,b'PIN',379,-140.2525,"b'Pinnacle, AK, USA'",0.975,60.0959,"b'AK, stheast, CREST, mag'",288,"b'Pinnacle, AK, USA'"
-136.3659,59.455,"b'Pleasant Camp, BC, CA'",,clampToGround,b'PLBC',380,-136.3659,"b'Pleasant Camp, BC, CA'",0.279,59.455,"b'CN, nomag'",289,"b'Pleasant Camp, BC, CA'"
-156.2695,57.688,"b'Mt. Peulik Volcano 3, Alaska'",,clampToGround,b'PLK3',384,-156.2695,"b'Mt. Peulik Volcano 3, Alaska'",0.494,57.688,"b'Peulik, AV, mag'",291,"b'Mt. Peulik Volcano 3, Alaska'"
-156.88,57.997,"b'Mt. Peulik Volcano 5, Alaska'",,clampToGround,b'PLK5',385,-156.88,"b'Mt. Peulik Volcano 5, Alaska'",0.049,57.997,"b'Peulik, AV, mag'",292,"b'Mt. Peulik Volcano 5, Alaska'"
147.1597,-9.4047,"b'Port Moresby, New Guinea'",,clampToGround,b'PMG',386,147.1597,"b'Port Moresby, New Guinea'",0.09,-9.4047,b'IU',293,"b'Port Moresby, New Guinea'"
-149.1308,61.5922,"b'Palmer, Alaska'",,clampToGround,b'PMR',387,-149.1308,"b'Palmer, Alaska'",0.1,61.5922,"b'AT, mag'",294,"b'Palmer, Alaska'"
-64.0489,-64.7744,"b'Palmer Station, Antarctica'",,clampToGround,b'PMSA',388,-64.0489,"b'Palmer Station, Antarctica'",0.04,-64.7744,b'IU',295,"b'Palmer Station, Antarctica'"
-155.5326,19.7573,"b'Pohakuloa, Hawaii, USA'",,clampToGround,b'POHA',391,-155.5326,"b'Pohakuloa, Hawaii, USA'",1.99,19.7573,b'IU',297,"b'Pohakuloa, Hawaii, USA'"
-147.4335,65.1171,"b'Poker Flat Research Range, AK, USA'",,clampToGround,b'POKR',392,-147.4335,"b'Poker Flat Research Range, AK, USA'",0.501,65.1171,"b'AK, mag'",298,"b'Poker Flat Research Range, AK, USA'"
-145.5246,65.5174,"b'Porcupine Dome, AK, USA'",,clampToGround,b'PPD',393,-145.5246,"b'Porcupine Dome, AK, USA'",1.505,65.5174,"b'AK, mag'",299,"b'Porcupine Dome, AK, USA'"
-152.1894,62.8962,"b'Purkeypile, AK, USA'",,clampToGround,b'PPLA',394,-152.1894,"b'Purkeypile, AK, USA'",1.519,62.8962,"b'AK, CREST, mag'",300,"b'Purkeypile, AK, USA'"
-148.6141,70.258,"b'TAPS Pump Station 1, AK, USA'",,clampToGround,b'PS01',395,-148.6141,"b'TAPS Pump Station 1, AK, USA'",0.009,70.258,"b'AK, mag'",301,"b'TAPS Pump Station 1, AK, USA'"
-150.6646,66.8133,"b'TAPS Pump Station 5, AK, USA'",,clampToGround,b'PS05',397,-150.6646,"b'TAPS Pump Station 5, AK, USA'",0.327,66.8133,"b'AK, mag'",303,"b'TAPS Pump Station 5, AK, USA'"
-149.7369,65.8545,"b'TAPS Pump Station 6, AK, USA'",,clampToGround,b'PS06',398,-149.7369,"b'TAPS Pump Station 6, AK, USA'",0.28,65.8545,"b'AK, mag'",304,"b'TAPS Pump Station 6, AK, USA'"
-148.2791,65.3106,"b'TAPS Pump Station 7, AK, USA'",,clampToGround,b'PS07',399,-148.2791,"b'TAPS Pump Station 7, AK, USA'",0.289,65.3106,"b'AK, mag'",305,"b'TAPS Pump Station 7, AK, USA'"
-146.8221,64.5422,"b'TAPS Pump Station 8, AK, USA'",,clampToGround,b'PS08',400,-146.8221,"b'TAPS Pump Station 8, AK, USA'",0.32,64.5422,"b'AK, mag'",306,"b'TAPS Pump Station 8, AK, USA'"
-153.6446,58.9287,"b'Cape Douglas, AK, USA'",,clampToGround,b'Q19K',413,-153.6446,"b'Cape Douglas, AK, USA'",0.631,58.9287,"b'mag, AK'",318,"b'Cape Douglas, AK, USA'"
-147.3759,63.0753,"b'Denali Highway, AK, USA'",,clampToGround,b'DHY',119,-147.3759,"b'Denali Highway, AK, USA'",1.611,63.0753,"b'AK, mag'",87,"b'Denali Highway, AK, USA'"
-162.259,55.1448,"b'Dutton Volcano, Alaska'",,clampToGround,b'DTN',126,-162.259,"b'Dutton Volcano, Alaska'",0.396,55.1448,"b'AV, Dutton, mag'",93,"b'Dutton Volcano, Alaska'"
-148.4868,68.0748,"b'Your Creek, AK, USA'",,clampToGround,b'E24K',132,-148.4868,"b'Your Creek, AK, USA'",0.847,68.0748,"b'AK, mag'",99,"b'Your Creek, AK, USA'"
143.1572,42.015,"b'Erimo, Hokkaido Island, Japan'",,clampToGround,b'ERM',138,143.1572,"b'Erimo, Hokkaido Island, Japan'",0.04,42.015,"b'HJ, II'",105,"b'Erimo, Hokkaido Island, Japan'"
-153.483,67.2221,"b'Alatna River, AK, USA'",,clampToGround,b'F21K',145,-153.483,"b'Alatna River, AK, USA'",0.597,67.2221,"b'mag, AK'",111,"b'Alatna River, AK, USA'"
-145.7684,63.4229,"b'TAPS Pump Station 10, AK, USA'",,clampToGround,b'PS10',402,-145.7684,"b'TAPS Pump Station 10, AK, USA'",0.738,63.4229,"b'AK, mag'",308,"b'TAPS Pump Station 10, AK, USA'"
-145.4751,62.0789,"b'TAPS Pump Station 11, AK, USA'",,clampToGround,b'PS11',403,-145.4751,"b'TAPS Pump Station 11, AK, USA'",0.375,62.0789,"b'AK, mag'",309,"b'TAPS Pump Station 11, AK, USA'"
-145.1458,61.4749,"b'TAPS Pump Station 12, AK, USA'",,clampToGround,b'PS12',404,-145.1458,"b'TAPS Pump Station 12, AK, USA'",0.5627,61.4749,"b'AK, mag'",310,"b'TAPS Pump Station 12, AK, USA'"
-161.7437,55.4201,"b'Pavlof South 1A, Pavlof Volcano, Alaska'",,clampToGround,b'PS1A',405,-161.7437,"b'Pavlof South 1A, Pavlof Volcano, Alaska'",0.283,55.4201,"b'AV, Pavlof, mag'",311,"b'Pavlof South 1A, Pavlof Volcano, Alaska'"
-59.9666,-0.7308,"b'Pitinga, Brazil'",,clampToGround,b'PTGA',408,-59.9666,"b'Pitinga, Brazil'",0.237,-0.7308,b'IU',313,"b'Pitinga, Brazil'"
-142.4672,61.1871,"b'Patty Peak Repeater, AK, USA'",,clampToGround,b'PTPK',409,-142.4672,"b'Patty Peak Repeater, AK, USA'",1.8926,61.1871,"b'AK, Steep, mag'",314,"b'Patty Peak Repeater, AK, USA'"
-148.3334,60.8584,"b'Port Wells, AK, USA'",,clampToGround,b'PWL',410,-148.3334,"b'Port Wells, AK, USA'",0.55,60.8584,"b'AK, mag, ARRA'",315,"b'Port Wells, AK, USA'"
-155.8865,58.2637,"b'Contact Creek, Katmai, AK, USA'",,clampToGround,b'Q17K',411,-155.8865,"b'Contact Creek, Katmai, AK, USA'",1.165,58.2637,"b'AV, mag'",316,"b'Contact Creek, Katmai, AK, USA'"
-155.0086,58.6484,"b'Katmai Hardscrabble Creek, AK, USA'",,clampToGround,b'Q18K',412,-155.0086,"b'Katmai Hardscrabble Creek, AK, USA'",1.25,58.6484,"b'mag, AV'",317,"b'Katmai Hardscrabble Creek, AK, USA'"
-146.3399,59.4296,"b'Middleton Island, AK, USA'",,clampToGround,b'Q23K',415,-146.3399,"b'Middleton Island, AK, USA'",0.046,59.4296,"b'AK, nomag'",320,"b'Middleton Island, AK, USA'"
109.8445,19.0291,"b'Qiongzhong, Hainan Province, China'",,clampToGround,b'QIZ',416,109.8445,"b'Qiongzhong, Hainan Province, China'",0.24,19.0291,b'IC',321,"b'Qiongzhong, Hainan Province, China'"
144.4382,-89.9289,b'South Pole Remote Earth Science Observatory (Quiet',,clampToGround,b'QSPA',417,144.4382,b'South Pole Remote Earth Science Observatory (Quiet',2.85,-89.9289,b'IU',322,b'South Pole Remote Earth Science Observatory (Quiet'
-157.5742,57.5673,"b'Pilot Point, AK, USA'",,clampToGround,b'R16K',418,-157.5742,"b'Pilot Point, AK, USA'",0.038,57.5673,"b'AK, mag'",323,"b'Pilot Point, AK, USA'"
-154.4524,57.5665,"b'Karluk, AK, USA'",,clampToGround,b'R18K',420,-154.4524,"b'Karluk, AK, USA'",0.039,57.5665,"b'AK, mag'",324,"b'Karluk, AK, USA'"
-177.929,-29.245,"b'Raoul, Kermadec Islands'",,clampToGround,b'RAO',423,-177.929,"b'Raoul, Kermadec Islands'",0.06,-29.245,b'IU',326,"b'Raoul, Kermadec Islands'"
-159.7733,-21.2125,"b'Rarotonga, Cook Islands'",,clampToGround,b'RAR',424,-159.7733,"b'Rarotonga, Cook Islands'",0.028,-21.2125,b'IU',327,"b'Rarotonga, Cook Islands'"
45.5032,23.5225,"b'Ar Rayn, Saudi Arabia'",,clampToGround,b'RAYN',425,45.5032,"b'Ar Rayn, Saudi Arabia'",0.631,23.5225,b'II',328,"b'Ar Rayn, Saudi Arabia'"
-149.739,61.0889,"b'Rabbit Creek, AK, USA'",,clampToGround,b'RC01',426,-149.739,"b'Rabbit Creek, AK, USA'",0.39,61.0889,"b'mag, AK'",329,"b'Rabbit Creek, AK, USA'"
-35.9014,-5.8274,"b'Riachuelo, Brazil'",,clampToGround,b'RCBR',427,-35.9014,"b'Riachuelo, Brazil'",0.4,-5.8274,b'IU',330,"b'Riachuelo, Brazil'"
-152.4075,60.5726,"b'Redoubt, Alaska'",,clampToGround,b'RDT',432,-152.4075,"b'Redoubt, Alaska'",0.93,60.5726,"b'AV, Redoubt, mag'",332,"b'Redoubt, Alaska'"
-152.8425,60.4875,"b'Redoubt, West Buttress, Redoubt Alaska'",,clampToGround,b'RDWB',433,-152.8425,"b'Redoubt, West Buttress, Redoubt Alaska'",1.546,60.4875,"b'AV, Redoubt'",333,"b'Redoubt, West Buttress, Redoubt Alaska'"
-144.8462,63.7399,"b'Independent Ridge, AK, USA'",,clampToGround,b'RIDG',436,-144.8462,"b'Independent Ridge, AK, USA'",0.871,63.7399,"b'AK, mag'",334,"b'Independent Ridge, AK, USA'"
-148.8602,63.4056,"b'Reindeer, AK, USA'",,clampToGround,b'RND',438,-148.8602,"b'Reindeer, AK, USA'",0.9936,63.4056,"b'AK, mag'",335,"b'Reindeer, AK, USA'"
-109.3344,-27.1267,"b'Rapanui, Easter Island, Chile'",,clampToGround,b'RPN',439,-109.3344,"b'Rapanui, Easter Island, Chile'",0.11,-27.1267,b'II',336,"b'Rapanui, Easter Island, Chile'"
-130.2523,54.3262,"b'Prince Rupert, BC, CA'",,clampToGround,b'RUBB',441,-130.2523,"b'Prince Rupert, BC, CA'",0.012,54.3262,b'mag',338,"b'Prince Rupert, BC, CA'"
-162.061,55.703,"b'Black Hills, AK, USA'",,clampToGround,b'S12K',442,-162.061,"b'Black Hills, AK, USA'",0.411,55.703,"b'mag, AV'",339,"b'Black Hills, AK, USA'"
-159.5532,56.2848,"b'Fog Glacier, AK, USA'",,clampToGround,b'S14K',443,-159.5532,"b'Fog Glacier, AK, USA'",1.059,56.2848,"b'AV, mag'",340,"b'Fog Glacier, AK, USA'"
-136.232,57.9616,"b'Pelican, AK, USA'",,clampToGround,b'S31K',444,-136.232,"b'Pelican, AK, USA'",0.034,57.9616,"b'AK, mag'",341,"b'Pelican, AK, USA'"
-134.5763,57.4688,"b'Killisnoo, AK, USA'",,clampToGround,b'S32K',445,-134.5763,"b'Killisnoo, AK, USA'",0.026,57.4688,"b'mag, AK'",342,"b'Killisnoo, AK, USA'"
-140.7828,60.1294,"b'Samovar Hills, AK, USA'",,clampToGround,b'SAMH',447,-140.7828,"b'Samovar Hills, AK, USA'",1.14,60.1294,"b'AK, Steep, mag'",344,"b'Samovar Hills, AK, USA'"
-63.1831,-8.9489,"b'Samuel, Brazil'",,clampToGround,b'SAML',448,-63.1831,"b'Samuel, Brazil'",0.12,-8.9489,b'IU',345,"b'Samuel, Brazil'"
-148.3316,61.807,"b'Sawmill, AK, USA'",,clampToGround,b'SAW',449,-148.3316,"b'Sawmill, AK, USA'",0.781,61.807,"b'AK, mag'",346,"b'Sawmill, AK, USA'"
166.7572,-77.8492,"b'Scott Base, Antarctica'",,clampToGround,b'SBA',450,166.7572,"b'Scott Base, Antarctica'",0.05,-77.8492,b'IU',347,"b'Scott Base, Antarctica'"
-147.329,61.832,"b'Sheep Mountain, AK, USA'",,clampToGround,b'SCM',451,-147.329,"b'Sheep Mountain, AK, USA'",1.05,61.832,"b'AK, mag'",348,"b'Sheep Mountain, AK, USA'"
-160.4766,55.3493,"b'Sand Point, Alaska'",,clampToGround,b'SDPT',453,-160.4766,"b'Sand Point, Alaska'",0.074,55.3493,"b'AT, mag, CREST'",350,"b'Sand Point, Alaska'"
-70.634,8.8839,"b'Santo Domingo, Venezuela'",,clampToGround,b'SDV',454,-70.634,"b'Santo Domingo, Venezuela'",1.62,8.8839,b'IU',351,"b'Santo Domingo, Venezuela'"
-50.6208,66.9961,"b'Sondre Stromfjord, Greenland'",,clampToGround,b'SFJD',455,-50.6208,"b'Sondre Stromfjord, Greenland'",0.33,66.9961,b'IU',352,"b'Sondre Stromfjord, Greenland'"
-5.7457,-15.9588,"b'Horse Pasture, St. Helena Island'",,clampToGround,b'SHEL',456,-5.7457,"b'Horse Pasture, St. Helena Island'",0.537,-15.9588,b'II',353,"b'Horse Pasture, St. Helena Island'"
-154.1842,56.5593,"b'Sitkinak Island Coast Guard, AK, USA'",,clampToGround,b'SII',457,-154.1842,"b'Sitkinak Island Coast Guard, AK, USA'",0.492,56.5593,"b'AK, mag'",354,"b'Sitkinak Island Coast Guard, AK, USA'"
-66.15,18.1091,"b'San Juan, Puerto Rico'",,clampToGround,b'SJG',459,-66.15,"b'San Juan, Puerto Rico'",0.42,18.1091,b'IU',356,"b'San Juan, Puerto Rico'"
-135.329,59.4601,"b'Skagway, Alaska'",,clampToGround,b'SKAG',460,-135.329,"b'Skagway, Alaska'",0.134,59.4601,"b'AT, mag, stheast'",357,"b'Skagway, Alaska'"
-151.5317,61.98,"b'Skwentna, AK, USA'",,clampToGround,b'SKN',461,-151.5317,"b'Skwentna, AK, USA'",0.581,61.98,"b'AK, mag'",358,"b'Skwentna, AK, USA'"
-150.2231,60.5117,"b'Skilak Lake, AK, USA'",,clampToGround,b'SLK',462,-150.2231,"b'Skilak Lake, AK, USA'",0.655,60.5117,"b'AK, mag'",359,"b'Skilak Lake, AK, USA'"
174.1031,52.7308,"b'Shemya, Alaska'",,clampToGround,b'SMY',463,174.1031,"b'Shemya, Alaska'",0.058,52.7308,"b'AT, mag, CREST'",360,"b'Shemya, Alaska'"
-123.4754,60.239,"b'Fort Liard, Yukon, CANADA'",,clampToGround,b'FLDN',151,-123.4754,"b'Fort Liard, Yukon, CANADA'",0,60.239,b'NY',117,"b'Fort Liard, Yukon, CANADA'"
-150.0239,66.7108,"b'Bananza Creek, AK, USA'",,clampToGround,b'G23K',157,-150.0239,"b'Bananza Creek, AK, USA'",0.746,66.7108,"b'AK, mag'",123,"b'Bananza Creek, AK, USA'"
-156.8792,64.7461,"b'Galena City School, AK, USA'",,clampToGround,b'GCSA',167,-156.8792,"b'Galena City School, AK, USA'",0.045,64.7461,"b'PEPP, AK, mag'",129,"b'Galena City School, AK, USA'"
-162.239,64.6379,"b'Elim, AK, USA'",,clampToGround,b'H16K',185,-162.239,"b'Elim, AK, USA'",0.216,64.6379,"b'AK, mag'",140,"b'Elim, AK, USA'"
-145.1568,62.3987,"b'HAARP, Gakona, AK, USA'",,clampToGround,b'HARP',192,-145.1568,"b'HAARP, Gakona, AK, USA'",0.581,62.3987,"b'DFLT, mag, AK'",146,"b'HAARP, Gakona, AK, USA'"
-152.0228,61.2913,"b'Capps Glacier, Mount Spurr, Alaska'",,clampToGround,b'SPCG',467,-152.0228,"b'Capps Glacier, Mount Spurr, Alaska'",1.329,61.2913,"b'Spurr, AV, nomag'",362,"b'Capps Glacier, Mount Spurr, Alaska'"
-152.3399,61.1956,"b'Chakachamna Lake, Mount Spurr, Alaska'",,clampToGround,b'SPCL',468,-152.3399,"b'Chakachamna Lake, Mount Spurr, Alaska'",1.274,61.1956,"b'mag, AV, Spurr'",363,"b'Chakachamna Lake, Mount Spurr, Alaska'"
-170.2478,57.1766,"b'St Paul Island, AK, USA'",,clampToGround,b'SPIA',472,-170.2478,"b'St Paul Island, AK, USA'",0.071,57.1766,"b'mag, CREST, AK'",364,"b'St Paul Island, AK, USA'"
-152.7012,61.3662,"b'North Nagishlamina, Mount Spurr, Alaska'",,clampToGround,b'SPNN',473,-152.7012,"b'North Nagishlamina, Mount Spurr, Alaska'",1.666,61.3662,"b'AV, mag, Spurr'",365,"b'North Nagishlamina, Mount Spurr, Alaska'"
-150.7467,61.4636,"b'Susitna, AK, USA'",,clampToGround,b'SSN',480,-150.7467,"b'Susitna, AK, USA'",1.306,61.4636,"b'AK, mag'",367,"b'Susitna, AK, USA'"
-77.8876,40.6358,"b'Standing Stone, Pennsylvania'",,clampToGround,b'SSPA',481,-77.8876,"b'Standing Stone, Pennsylvania'",0.27,40.6358,b'IU',368,"b'Standing Stone, Pennsylvania'"
-151.8349,61.4982,"b'Strandline Lake, Regional Station, Alaska'",,clampToGround,b'STLK',482,-151.8349,"b'Strandline Lake, Regional Station, Alaska'",0.945,61.4982,"b'AV, Spurr, mag'",369,"b'Strandline Lake, Regional Station, Alaska'"
-143.779,60.072,"b'Suckling Hills, AK, USA'",,clampToGround,b'SUCK',483,-143.779,"b'Suckling Hills, AK, USA'",0.467,60.072,"b'mag, AK, Steep'",370,"b'Suckling Hills, AK, USA'"
20.8117,-32.3797,"b'Sutherland, South Africa'",,clampToGround,b'SUR',484,20.8117,"b'Sutherland, South Africa'",1.77,-32.3797,b'II',371,"b'Sutherland, South Africa'"
-149.4526,60.1043,"b'Seward, AK, USA'",,clampToGround,b'SWD',486,-149.4526,"b'Seward, AK, USA'",0.077,60.1043,"b'AK, CREST, mag'",373,"b'Seward, AK, USA'"
-141.1443,60.4399,"b'Table Mountain, AK, USA'",,clampToGround,b'TABL',487,-141.1443,"b'Table Mountain, AK, USA'",2.05,60.4399,"b'AK, Steep, mag'",374,"b'Table Mountain, AK, USA'"
-177.8998,51.7555,"b'Flats, Tanaga Volcano, Alaska'",,clampToGround,b'TAFL',488,-177.8998,"b'Flats, Tanaga Volcano, Alaska'",0.186,51.7555,"b'Tanaga, AV, mag'",375,"b'Flats, Tanaga Volcano, Alaska'"
-178.1228,51.9146,"b'North, Tanaga Volcano, Alaska'",,clampToGround,b'TANO',490,-178.1228,"b'North, Tanaga Volcano, Alaska'",0.269,51.9146,"b'Tanaga, AV, mag'",376,"b'North, Tanaga Volcano, Alaska'"
121.4971,24.9735,"b'Taipei, Taiwan'",,clampToGround,b'TATO',493,121.4971,"b'Taipei, Taiwan'",0.16,24.9735,b'IU',377,"b'Taipei, Taiwan'"
-88.2763,20.2263,"b'Tepich, Yucatan, Mexico'",,clampToGround,b'TEIG',495,-88.2763,"b'Tepich, Yucatan, Mexico'",0.04,20.2263,b'IU',379,"b'Tepich, Yucatan, Mexico'"
-128.2727,61.5267,"b'Hyland Airport, Yukon, CANADA'",,clampToGround,b'TGTN',497,-128.2727,"b'Hyland Airport, Yukon, CANADA'",0,61.5267,b'NY',380,"b'Hyland Airport, Yukon, CANADA'"
128.8667,71.6341,"b'Tiksi, Russia'",,clampToGround,b'TIXI',498,128.8667,"b'Tiksi, Russia'",0.04,71.6341,b'IU',381,"b'Tiksi, Russia'"
103.6438,51.6807,"b'Talaya, Russia'",,clampToGround,b'TLY',499,103.6438,"b'Talaya, Russia'",0.579,51.6807,b'II',382,"b'Talaya, Russia'"
-167.9267,65.5598,"b'Tin City, AK, USA'",,clampToGround,b'TNA',500,-167.9267,"b'Tin City, AK, USA'",0.074,65.5598,"b'AK, mag, CREST'",383,"b'Tin City, AK, USA'"
-150.2892,63.4501,"b'Thorofare Mountian, AK, USA'",,clampToGround,b'TRF',502,-150.2892,"b'Thorofare Mountian, AK, USA'",1.7099,63.4501,"b'AK, mag'",385,"b'Thorofare Mountian, AK, USA'"
-12.3152,-37.0681,b'Tristan da Cunha',,clampToGround,b'TRIS',503,-12.3152,b'Tristan da Cunha',0.06,-37.0681,b'IU',386,b'Tristan da Cunha'
-61.9787,-38.0568,"b'Tornquist, Argentina'",,clampToGround,b'TRQA',504,-61.9787,"b'Tornquist, Argentina'",0.54,-38.0568,b'IU',387,"b'Tornquist, Argentina'"
17.5838,-19.2022,"b'Tsumeb, Namibia'",,clampToGround,b'TSUM',505,17.5838,"b'Tsumeb, Namibia'",1.26,-19.2022,b'IU',388,"b'Tsumeb, Namibia'"
-156.0116,62.9301,"b'Tatalina, Alaska'",,clampToGround,b'TTA',506,-156.0116,"b'Tatalina, Alaska'",0.99,62.9301,"b'AT, mag'",389,"b'Tatalina, Alaska'"
-103.6678,29.3342,"b'TXAR Array, Lajitas, TX, USA'",,clampToGround,b'TX31',508,-103.6678,"b'TXAR Array, Lajitas, TX, USA'",1.025,29.3342,b'IM',391,"b'TXAR Array, Lajitas, TX, USA'"
-133.121,56.1146,"b'Whale Pass, AK, USA'",,clampToGround,b'U33K',509,-133.121,"b'Whale Pass, AK, USA'",0.011,56.1146,"b'AK, mag'",392,"b'Whale Pass, AK, USA'"
-124.0832,52.8918,"b'Upper Baezaeko River, BC, CA'",,clampToGround,b'UBRB',510,-124.0832,"b'Upper Baezaeko River, BC, CA'",1.241,52.8918,b'mag',393,"b'Upper Baezaeko River, BC, CA'"
107.0532,47.8651,"b'Ulaanbaatar, Mongolia'",,clampToGround,b'ULN',511,107.0532,"b'Ulaanbaatar, Mongolia'",1.61,47.8651,b'IU',394,"b'Ulaanbaatar, Mongolia'"
-131.615,55.3279,"b'Ketchikan, AK, USA'",,clampToGround,b'V35K',513,-131.615,"b'Ketchikan, AK, USA'",0.064,55.3279,"b'AK, mag'",395,"b'Ketchikan, AK, USA'"
161.8528,-77.5172,b'Wright Valley (Bull Pass) Antarctica',,clampToGround,b'VNDA',515,161.8528,b'Wright Valley (Bull Pass) Antarctica',0.151,-77.5172,b'IM',397,b'Wright Valley (Bull Pass) Antarctica'
-143.4545,61.2275,"b'Verde Repeater, AK, USA'",,clampToGround,b'VRDI',516,-143.4545,"b'Verde Repeater, AK, USA'",1.9094,61.2275,"b'AK, Steep, mag'",398,"b'Verde Repeater, AK, USA'"
166.652,19.2834,b'Wake Island',,clampToGround,b'WAKE',518,166.652,b'Wake Island',0.02,19.2834,b'IU',399,b'Wake Island'
-147.74,62.5808,"b'Susitna Watana 6, AK, USA'",,clampToGround,b'WAT6',520,-147.74,"b'Susitna Watana 6, AK, USA'",1.681,62.5808,"b'AK, mag, Watana'",400,"b'Susitna Watana 6, AK, USA'"
-148.8476,62.8331,"b'Susitna Watana 7, AK, USA'",,clampToGround,b'WAT7',521,-148.8476,"b'Susitna Watana 7, AK, USA'",1.232,62.8331,"b'AK, mag, Watana'",401,"b'Susitna Watana 7, AK, USA'"
-144.1544,62.0746,"b'Wrangell Zanetti, Alaska'",,clampToGround,b'WAZA',523,-144.1544,"b'Wrangell Zanetti, Alaska'",2.531,62.0746,"b'AV, Wrangell, mag'",403,"b'Wrangell Zanetti, Alaska'"
-86.2939,38.2289,"b'Wyandotte Cave, Indiana, USA'",,clampToGround,b'WCI',524,-86.2939,"b'Wyandotte Cave, Indiana, USA'",0.21,38.2289,b'IU',404,"b'Wyandotte Cave, Indiana, USA'"
-164.7233,54.4926,"b'Westdahl Peak, Westdahl Peak, Alaska'",,clampToGround,b'WESP',529,-164.7233,"b'Westdahl Peak, Westdahl Peak, Alaska'",0.937,54.4926,"b'AV, mag, Westdahl'",405,"b'Westdahl Peak, Westdahl Peak, Alaska'"
-123.4584,63.2281,"b'Wrigley, Yukon, CANADA'",,clampToGround,b'WGLY',530,-123.4584,"b'Wrigley, Yukon, CANADA'",0,63.2281,b'NY',406,"b'Wrigley, Yukon, CANADA'"
-134.8825,60.6597,"b'Whitehorse, YT, CA'",,clampToGround,b'WHY',531,-134.8825,"b'Whitehorse, YT, CA'",1.273,60.6597,"b'CN, stheast, mag'",407,"b'Whitehorse, YT, CA'"
-71.5583,42.5064,"b'Adam Dziewonski Observatory (Oak Ridge), Massachus'",,clampToGround,b'HRV',199,-71.5583,"b'Adam Dziewonski Observatory (Oak Ridge), Massachus'",0.2,42.5064,b'IU',152,"b'Adam Dziewonski Observatory (Oak Ridge), Massachus'"
-141.6153,65.6035,"b'Kandik River, AK, USA'",,clampToGround,b'I27K',204,-141.6153,"b'Kandik River, AK, USA'",0.874,65.6035,"b'AK, mag'",157,"b'Kandik River, AK, USA'"
-142.3406,60.6024,"b'Juniper Island, AK, USA'",,clampToGround,b'ISLE',214,-142.3406,"b'Juniper Island, AK, USA'",1.425,60.6024,"b'AK, Steep, mag'",163,"b'Juniper Island, AK, USA'"
-143.5636,64.5012,"b'Joseph Creek, AK, USA'",,clampToGround,b'J26L',222,-143.5636,"b'Joseph Creek, AK, USA'",1.144,64.5012,"b'AK, mag'",169,"b'Joseph Creek, AK, USA'"
-154.07,63.3569,"b'Telida, AK, USA'",,clampToGround,b'K20K',228,-154.07,"b'Telida, AK, USA'",0.548,63.3569,"b'mag, AK'",175,"b'Telida, AK, USA'"
134.36,-19.9336,"b'Tennant Creek, NT, Australia'",,clampToGround,b'WRAB',533,134.36,"b'Tennant Creek, NT, Australia'",0.366,-19.9336,b'II',409,"b'Tennant Creek, NT, Australia'"
-132.3466,56.4191,"b'Wrangell Island, Southeastern Alaska, Alaska, USA'",,clampToGround,b'WRAK',534,-132.3466,"b'Wrangell Island, Southeastern Alaska, Alaska, USA'",0.0809,56.4191,"b'US, nmag'",410,"b'Wrangell Island, Southeastern Alaska, Alaska, USA'"
-148.0918,64.4716,"b'Wood River Hill, AK, USA'",,clampToGround,b'WRH',535,-148.0918,"b'Wood River Hill, AK, USA'",0.329,64.4716,"b'AK, mag'",411,"b'Wood River Hill, AK, USA'"
-128.7961,60.1133,"b'Watson Lake, Yukon, CANADA'",,clampToGround,b'WTLY',536,-128.7961,"b'Watson Lake, Yukon, CANADA'",0,60.1133,b'NY',412,"b'Watson Lake, Yukon, CANADA'"
-87.83,36.1297,"b'Waverly, Tennessee, USA'",,clampToGround,b'WVT',538,-87.83,"b'Waverly, Tennessee, USA'",0.17,36.1297,b'IU',414,"b'Waverly, Tennessee, USA'"
108.9237,34.0313,"b""Xi'an, China""",,clampToGround,b'XAN',539,108.9237,"b""Xi'an, China""",0.63,34.0313,b'IC',415,"b""Xi'an, China"""
-157.4457,2.0448,"b'Kiritimati Island, Republic of Kiribati'",,clampToGround,b'XMAS',540,-157.4457,"b'Kiritimati Island, Republic of Kiribati'",0.02,2.0448,b'IU',416,"b'Kiritimati Island, Republic of Kiribati'"
-141.751,60.3583,"b'Yahtse, AK, USA'",,clampToGround,b'YAH',541,-141.751,"b'Yahtse, AK, USA'",2.125,60.3583,"b'AK, stheast, mag, ARRA'",417,"b'Yahtse, AK, USA'"
129.6805,62.031,"b'Yakutsk, Russia'",,clampToGround,b'YAK',542,129.6805,"b'Yakutsk, Russia'",0.11,62.031,b'IU',418,"b'Yakutsk, Russia'"
142.7604,46.9587,"b'Yuzhno Sakhalinsk, Russia'",,clampToGround,b'YSS',544,142.7604,"b'Yuzhno Sakhalinsk, Russia'",0.15,46.9587,b'IU',420,"b'Yuzhno Sakhalinsk, Russia'"
-140.5288,62.1533,"b'Sand Pete Hill, YT, CA'",,clampToGround,b'YUK1',545,-140.5288,"b'Sand Pete Hill, YT, CA'",1.532,62.1533,"b'CN, stheast, mag'",421,"b'Sand Pete Hill, YT, CA'"
-140.8426,61.7668,"b'White River, YT, CA'",,clampToGround,b'YUK2',546,-140.8426,"b'White River, YT, CA'",1.229,61.7668,"b'CN, stheast, mag'",422,"b'White River, YT, CA'"
-140.4595,61.7755,"b'Moose Creek, YT, CA'",,clampToGround,b'YUK3',547,-140.4595,"b'Moose Creek, YT, CA'",2.1,61.7755,"b'CN, stheast, mag'",423,"b'Moose Creek, YT, CA'"
-138.5463,61.4348,"b'Talbot Arm, YT, CA'",,clampToGround,b'YUK4',548,-138.5463,"b'Talbot Arm, YT, CA'",2.009,61.4348,"b'CN, stheast, mag'",424,"b'Talbot Arm, YT, CA'"
-161.0713,70.2043,"b'Wainwright, AK, USA'",,clampToGround,b'A19K',0,-161.0713,"b'Wainwright, AK, USA'",0.024,70.2043,"b'mag, AK'",0,"b'Wainwright, AK, USA'"
-155.4961,58.1981,"b'Angle Creek, Katmai Volcanic Cluster, Alaska'",,clampToGround,b'ANCK',22,-155.4961,"b'Angle Creek, Katmai Volcanic Cluster, Alaska'",0.869,58.1981,"b'AV, Katmai, mag'",11,"b'Angle Creek, Katmai Volcanic Cluster, Alaska'"
-153.3573,59.3702,"b'Augustine Mound, Augustine Volcano, Alaska'",,clampToGround,b'AU22',28,-153.3573,"b'Augustine Mound, Augustine Volcano, Alaska'",0.105,59.3702,"b'AV, Augustn, nomag'",11,"b'Augustine Mound, Augustine Volcano, Alaska'"
-148.1751,61.1416,"b'Barry Arm Top, AK, USA'",,clampToGround,b'BAT',48,-148.1751,"b'Barry Arm Top, AK, USA'",1.027,61.1416,"b'AK, mag'",23,"b'Barry Arm Top, AK, USA'"
8.3311,48.3319,"b'Black Forest Observatory, Schiltach, Germany'",,clampToGround,b'BFO',54,8.3311,"b'Black Forest Observatory, Schiltach, Germany'",0.589,48.3319,b'II',29,"b'Black Forest Observatory, Schiltach, Germany'"
70.2828,53.0581,"b'Borovoye, Kazakhstan'",,clampToGround,b'BRVK',66,70.2828,"b'Borovoye, Kazakhstan'",0.33,53.0581,b'II',40,"b'Borovoye, Kazakhstan'"
-159.5874,69.1049,"b'Lookout Ridge, AK, USA'",,clampToGround,b'C19K',72,-159.5874,"b'Lookout Ridge, AK, USA'",0.745,69.1049,"b'mag, AK'",46,"b'Lookout Ridge, AK, USA'"
-151.1539,60.7683,"b'Captain Cook Nikiski, AK, USA'",,clampToGround,b'CAPN',78,-151.1539,"b'Captain Cook Nikiski, AK, USA'",0.047,60.7683,"b'nomag, AK'",52,"b'Captain Cook Nikiski, AK, USA'"
-158.4142,56.3014,"b'Chignik, Alaska'",,clampToGround,b'CHGN',89,-158.4142,"b'Chignik, Alaska'",0.017,56.3014,"b'AT, mag'",58,"b'Chignik, Alaska'"
-147.8616,64.8736,"b'College Outpost, Alaska, USA'",,clampToGround,b'COLA',101,-147.8616,"b'College Outpost, Alaska, USA'",0.2,64.8736,"b'IU, mag'",69,"b'College Outpost, Alaska, USA'"
-150.2625,62.4058,"b'Chulitna, AK, USA'",,clampToGround,b'CUT',107,-150.2625,"b'Chulitna, AK, USA'",0.574,62.4058,"b'AK, mag'",75,"b'Chulitna, AK, USA'"
-146.3751,69.322,"b'Kavik River, AK, USA'",,clampToGround,b'D25K',113,-146.3751,"b'Kavik River, AK, USA'",0.77,69.322,"b'AK, mag'",81,"b'Kavik River, AK, USA'"
-138.3626,60.9432,"b'Outpost Mountain, YT, CA'",,clampToGround,b'YUK6',550,-138.3626,"b'Outpost Mountain, YT, CA'",2.233,60.9432,"b'CN, stheast, mag'",426,"b'Outpost Mountain, YT, CA'"
-138.1399,60.5307,"b'Dusty Glacier, YT, CA'",,clampToGround,b'YUK7',551,-138.1399,"b'Dusty Glacier, YT, CA'",1.992,60.5307,"b'CN, stheast, mag'",427,"b'Dusty Glacier, YT, CA'"
-139.7646,61.2844,"b'Steele Glacier, YT, CA'",,clampToGround,b'YUK8',552,-139.7646,"b'Steele Glacier, YT, CA'",2.456,61.2844,"b'mag, CN'",428,"b'Steele Glacier, YT, CA'"
